X,Y,FID,Location,Latitude,Longitude
-8881890.62464891,5402872.94548545,1,ARGENTIA RD at 3155 ARGENTIA RD,43.594304,-79.787381
-8881783.75793775,5402968.24317712,2,ARGENTIA RD east of TENTH LINE,43.594924,-79.786421
-8871604.92633859,5406863.83876733,3,MCLAUGHLIN RD south of CANTAY RD,43.620263,-79.694983
-8871174.67650667,5406416.68202904,4,MCLAUGHLIN RD north of BRITANNIA RD,43.617355,-79.691118
-8876285.35432899,5398089.03344928,5,WINSTON CHURCHILL BLVD at BENTLEY DR,43.563172,-79.737028
-8864877.3329125,5402757.51362865,6,HURONTARIO ST at BURNHAMTHORPE RD E,43.593553,-79.634548
-8865002.23338117,5402795.6321118,7,HURONTARIO ST at BURNHAMTHORPE RD W,43.593801,-79.63567
-8870317.62774706,5395010.27179304,8,SOUTH COMMON CENTRE BUS TERMINAL PLATFORM C,43.543128,-79.683419
-8870374.84596532,5395031.92584025,9,SOUTH COMMON CENTRE BUS TERMINAL PLATFORM I,43.543269,-79.683933
-8866559.25909889,5402364.50278192,10,LIVING ARTS DR at RATHBURN RD,43.590996,-79.649657
-8876762.46966654,5397349.35521209,11,THOMAS ST at TENTH LINE,43.558357,-79.741314
-8876711.93061771,5395677.88475119,12,CHURCHILL MEADOWS BLVD at TACC DR,43.547475,-79.74086
-8870308.27690983,5395000.44302236,13,SOUTH COMMON CENTRE BUS TERMINAL PLATFORM B,43.543064,-79.683335
-8866701.30276914,5388468.92143438,14,WINSTON CHURCHILL BLVD at BROMSGROVE RD,43.500519,-79.650933
-8872623.16572087,5394440.83460111,15,WINSTON CHURCHILL BLVD at UNITY GATE,43.53942,-79.70413
-8864711.6895102,5390323.59260736,16,CLARKSON GO STATION PLATFORM 8,43.512603,-79.63306
-8874155.81247011,5395938.83053016,17,WINSTON CHURCHILL BLVD at EGLINTON AVE,43.549174,-79.717898
-8873808.38433935,5395586.34812756,18,WINSTON CHURCHILL BLVD at ARTESIAN DR,43.546879,-79.714777
-8877832.91789,5405113.16210275,19,MISSISSAUGA RD at DUPONT MEADOW PLACE,43.608877,-79.75093
-8868884.83458105,5390013.07353378,20,BRISTOL CIRCLE at LONDON LANE,43.51058,-79.670548
-8882370.18901524,5400905.26757813,21,ROSEHURST DR at WATERFALL CRES,43.581501,-79.791689
-8881974.33690598,5401386.58228168,22,TERRAGAR BLVD at BLACK WALNUT TRAIL,43.584633,-79.788133
-8875954.73544134,5397698.06427449,23,THOMAS ST at WINSTON CHURCHILL BLVD,43.560627,-79.734058
-8869415.1606352,5415376.70461659,24,DIXIE RD at DERRY RD,43.675598,-79.675312
-8870714.37041224,5414437.41989928,25,LORIMAR DR at CARDIFF BLVD,43.669495,-79.686983
-8871501.39921215,5409514.00927001,26,COURTNEYPARK DR at HURONTARIO ST,43.637495,-79.694053
-8876792.30329006,5397378.84903828,27,TENTH LINE at THOMAS ST,43.558549,-79.741582
-8868013.20296815,5412912.88233484,28,COURTNEYPARK DR at VIPOND DR,43.659588,-79.662718
-8868819.60135945,5412206.94370226,29,COURTNEYPARK DR at TOMKEN RD,43.655,-79.669962
-8870438.07543609,5411040.13985716,30,COURTNEYPARK DR at KENNEDY RD,43.647416,-79.684501
-8874698.8289462,5396563.96304905,31,ERIN CENTRE BLVD at WINSTON CHURCHILL BLVD,43.553244,-79.722776
-8877867.87221011,5395871.09757582,32,THOMAS ST at NINTH LINE,43.548733,-79.751244
-8874621.12794163,5396594.68317999,33,ERIN CENTRE BLVD east of WINSTON CHURCHILL BLVD,43.553444,-79.722078
-8873390.6022904,5407469.10324406,34,COURTNEYPARK DR at ST MARCELLINUS SECONDARY SCHOOL,43.624199,-79.711024
-8872520.75178935,5407771.28898346,35,COURTNEYPARK DR at MCLAUGHLIN RD,43.626164,-79.70321
-8871530.45359925,5409421.72036958,36,COURTNEYPARK DR at HURONTARIO ST,43.636895,-79.694314
-8869374.75166004,5403083.83137242,37,MAVIS RD at WINTERTON WAY,43.595676,-79.674949
-8870000.03323982,5403576.94192038,38,MAVIS RD at BRISTOL RD,43.598884,-79.680566
-8871042.65159059,5404983.25068879,39,MAVIS RD at MATHESON BLVD,43.608032,-79.689932
-8874073.10208846,5408040.57325053,40,MAVIS RD at CRAIG CARRIER CRT,43.627915,-79.717155
-8871406.10972803,5405289.3525696,41,MAVIS RD at PLYMOUTH DR,43.610023,-79.693197
-8871127.69968156,5405016.30489912,42,MAVIS RD at MATHESON BLVD,43.608247,-79.690696
-8870860.53290366,5404722.81839222,43,MAVIS RD at FATHER DSOUZA DR,43.606338,-79.688296
-8870567.4286844,5404239.17787005,44,MAVIS RD at PRESTON MANOR DR,43.603192,-79.685663
-8870086.41716468,5403611.52827899,45,MAVIS RD at BRISTOL RD,43.599109,-79.681342
-8869445.10557822,5403086.44442013,46,MAVIS RD at WINTERTON WAY,43.595693,-79.675581
-8876827.92552712,5406989.00962399,47,DERRY RD at ATWOOD LANE,43.621077,-79.741902
-8872395.07208424,5406361.17336519,48,MAVIS RD at CANTAY RD,43.616994,-79.702081
-8871734.83618435,5405617.14341774,49,MAVIS RD at BRITANNIA RD,43.612155,-79.69615
-8864557.06673749,5399555.9679879,50,HILLCREST AVE at CLAYHILL RD,43.57272,-79.631671
-8876879.24381237,5407063.12879251,51,DERRY RD at BELLSHIRE GATE,43.621559,-79.742363
-8877094.09042961,5405897.89660008,52,CREDITVIEW RD at DERRY RD,43.613981,-79.744293
-8874457.93356813,5408407.98745346,53,MAVIS RD at CRAWFORD MILL AVE,43.630304,-79.720612
-8865944.55287073,5400311.95718592,54,GRAND PARK DR at CENTRAL PKY W,43.57764,-79.644135
-8866121.77350008,5400941.68802578,55,WEBB DR at REDMOND RD,43.581738,-79.645727
-8865901.80618627,5400222.67963538,56,GRAND PARK DR at CENTRAL PKY,43.577059,-79.643751
-8874396.59652871,5409707.35750411,57,MCLAUGHLIN RD at KAISER DR,43.638752,-79.720061
-8874135.77496177,5409431.87210352,58,MCLAUGHLIN RD at DERRY RD,43.636961,-79.717718
-8875231.71534863,5409423.87376676,59,MAVIS RD south of TWAIN AVE,43.636909,-79.727563
-8872459.52606941,5407789.28203373,60,MCLAUGHLIN RD at COURTNEYPARK DR,43.626281,-79.70266
-8873994.84448643,5409354.96530596,61,MCLAUGHLIN RD at DERRY RD,43.636461,-79.716452
-8874330.58407066,5409691.20654213,62,MCLAUGHLIN RD at DERRYDALE RD,43.638647,-79.719468
-8874710.9627707,5410083.45217084,63,MCLAUGHLIN RD at PANHELLENIC DR,43.641197,-79.722885
-8876425.17160943,5411795.6839192,64,MCLAUGHLIN RD north of RAY LAWSON BLVD,43.652327,-79.738284
-8875060.95124976,5410393.56873417,65,MCLAUGHLIN RD at ROSSELLINI DR,43.643213,-79.726029
-8874786.43738546,5410109.60247135,66,MCLAUGHLIN RD at TWAIN AVE,43.641367,-79.723563
-8873785.11856578,5409085.79655384,67,MCLAUGHLIN RD at NOVO STAR DR,43.634711,-79.714568
-8872543.57228496,5407810.3508636,68,MCLAUGHLIN RD at COURTNEYPARK DR,43.626418,-79.703415
-8875016.8687314,5410388.79999792,69,MCLAUGHLIN RD at ROSSELLINI DR,43.643182,-79.725633
-8877183.59130021,5405179.42531378,70,FINANCIAL DR south of SYNTEX CRT,43.609308,-79.745097
-8855594.51189474,5408401.9893647,71,DUNDAS ST west of THE EAST MALL,43.630265,-79.551159
-8857785.72475151,5408895.22981675,72,BLOOR ST at MARKLAND DR,43.633472,-79.570843
-8855976.33774816,5408206.0539388,73,DUNDAS ST at CLOVERDALE MALL,43.628991,-79.554589
-8855225.04250479,5409734.27583678,74,BLOOR ST at SHAVER AVE,43.638927,-79.54784
-8856201.64839752,5409445.25395166,75,BLOOR ST at THE EAST MALL,43.637048,-79.556613
-8857768.69286942,5408925.52951145,76,BLOOR ST at MARKLAND DR,43.633669,-79.57069
-8858497.94685361,5408564.09292709,77,BLOOR ST west of MILL RD,43.631319,-79.577241
-8854425.7685609,5409983.31258663,78,BLOOR ST at AUKLAND RD,43.640546,-79.54066
-8862776.28884326,5410441.25623204,79,CREEKBANK RD north of TECH AVE,43.643523,-79.615674
-8861135.1055905,5413076.14216992,80,MATHESON BLVD at SHUTTLE DR,43.660649,-79.600931
-8861555.11402926,5412560.98334038,81,MATHESON BLVD west of ORBITOR DR,43.657301,-79.604704
-8862344.14658001,5411770.75967216,82,MATHESON BLVD at SPECTRUM WAY,43.652165,-79.611792
-8862406.81945333,5411739.98908956,83,MATHESON BLVD at SPECTRUM WAY,43.651965,-79.612355
-8861124.86419735,5413027.51782688,84,MATHESON BLVD at SHUTTLE DR,43.660333,-79.600839
-8860858.14269741,5413369.43240043,85,MATHESON BLVD at EXPLORER DR,43.662555,-79.598443
-8881485.6443414,5400195.0206723,86,LISGAR DR at DERRY RD,43.576879,-79.783743
-8864021.61998677,5402463.79139208,87,MISSISSAUGA VALLEY BLVD north of CENTRAL PKY E,43.591642,-79.626861
-8877686.42144012,5405591.31332316,88,FINANCIAL DR at DERRY RD,43.611987,-79.749614
-8864441.96238401,5402396.01066197,89,ELM DR east of HURONTARIO ST,43.591201,-79.630637
-8864493.16934977,5402384.48337633,90,ELM DR E at HURONTARIO ST,43.591126,-79.631097
-8864742.07973118,5402088.31390981,91,ELM DR W at KARIYA DR,43.589199,-79.633333
-8862598.51161647,5399725.29190795,92,CONFEDERATION PKY at PAISLEY BLVD,43.573822,-79.614077
-8865154.62976407,5402331.76543975,93,KARIYA DR at ENFIELD PLACE,43.590783,-79.637039
-8865001.23150575,5402181.14441926,94,KARIYA DR at ENFIELD PLACE,43.589803,-79.635661
-8864196.72554579,5402551.0924747,95,ELM DR at MISSISSAUGA VALLEY BLVD,43.59221,-79.628434
-8866301.44315822,5402829.44702673,96,CITY CENTRE TRANSIT TERMINAL PLATFORM L,43.594021,-79.647341
-8873456.39210946,5407406.51435373,97,MAVIS RD at COURTNEYPARK DR,43.623792,-79.711615
-8880965.89363889,5400855.63150267,98,DERRY RD at FOREST PARK DR,43.581178,-79.779074
-8880592.30542779,5401320.65359607,99,DERRY RD west of TENTH LINE,43.584204,-79.775718
-8871580.54737011,5409565.07619095,100,HURONTARIO ST at COURTNEYPARK DR E,43.637827,-79.694764
-8871558.61743042,5409473.40204029,101,HURONTARIO ST at COURTNEYPARK DR W,43.637231,-79.694567
-8871205.51200562,5409109.02166288,102,HURONTARIO ST south of PROLOGIS BLVD,43.634862,-79.691395
-8865529.66512855,5391251.22096602,103,SOUTHDOWN RD at TRUSCOTT DR,43.518646,-79.640408
-8865140.71482772,5390860.54041024,104,SOUTHDOWN RD at WISEMAN CRT,43.516101,-79.636914
-8866427.4568218,5390161.50127338,105,TRUSCOTT DR west of SEAGULL DR,43.511547,-79.648473
-8866245.33813486,5390269.10135949,106,TRUSCOTT DR at BODMIN RD,43.512248,-79.646837
-8866431.24168448,5390099.48980856,107,TRUSCOTT DR east of KELLY RD,43.511143,-79.648507
-8866572.28347932,5388701.73258337,108,BROMSGROVE RD at CRAMER ST,43.502036,-79.649774
-8866298.43753196,5389028.93651881,109,BROMSGROVE RD at CONSTABLE RD,43.504168,-79.647314
-8866018.35769313,5389404.49861846,110,BROMSGROVE RD east of TREDMORE DR,43.506615,-79.644798
-8867446.6980795,5389212.03456996,111,WINSTON CHURCHILL BLVD at TRUSCOTT DR,43.505361,-79.657629
-8872078.14549395,5395645.0174701,112,GLEN ERIN DR at FOLKWAY DR,43.547261,-79.699234
-8864111.56613533,5399259.42811533,113,DUNDAS ST at CLAYHILL RD,43.57079,-79.627669
-8874196.22144528,5397343.2106768,114,GLEN ERIN DR north of ERIN CENTRE BLVD,43.558317,-79.718261
-8864640.55635558,5403404.16578135,115,ROBERT SPECK PKY at MEADOWS BLVD,43.59776,-79.632421
-8872140.26176981,5395637.79897072,116,GLEN ERIN DR at FOLKWAY DR,43.547214,-79.699792
-8868451.02252543,5406346.87340327,117,HURONTARIO ST at BARONDALE DR,43.616901,-79.666651
-8868504.78983949,5406349.17984725,118,HURONTARIO ST at BARONDALE DR,43.616916,-79.667134
-8870471.58260282,5411102.90720029,119,KENNEDY RD at COURTNEYPARK DR,43.647824,-79.684802
-8869772.16224217,5410384.03126412,120,KENNEDY RD at PENDANT DR,43.643151,-79.678519
-8867238.86459019,5407771.44277006,121,KENNEDY RD at MATHESON BLVD,43.626165,-79.655762
-8864073.60618897,5390424.1336384,122,LAKESHORE RD W at INVERHOUSE DR,43.513258,-79.627328
-8863827.36747533,5390742.18817755,123,LAKESHORE RD W west of CLARKSON RD,43.51533,-79.625116
-8863619.20002755,5391008.21418815,124,LAKESHORE RD W at CLARKSON RD,43.517063,-79.623246
-8863385.76305536,5391300.19151809,125,LAKESHORE RD W at MEADOW WOOD RD,43.518965,-79.621149
-8862768.16252044,5392076.38631568,126,LAKESHORE RD W at SILVER BIRCH TRAIL,43.524021,-79.615601
-8861836.52970199,5393257.99758467,127,LAKESHORE RD W at TENNYSON AVE,43.531717,-79.607232
-8860490.6770583,5394969.11388546,128,LAKESHORE RD W at MAPLE AVE S,43.54286,-79.595142
-8860811.72246975,5394563.84112608,129,LAKESHORE RD W at SHAWNMARR RD,43.540221,-79.598026
-8860126.10572595,5395428.92568182,130,LAKESHORE RD W east of  BENSON AVE,43.545854,-79.591867
-8859892.55743427,5395713.97746063,131,LAKESHORE RD W at MISSISSAUGA RD,43.54771,-79.589769
-8865126.57725239,5390889.39954973,132,SOUTHDOWN RD at WISEMAN CRT,43.516289,-79.636787
-8865538.57068781,5391301.11259679,133,SOUTHDOWN RD at TRUSCOTT DR,43.518971,-79.640488
-8865502.28053381,5391409.8005259,134,TRUSCOTT DR at DAVEBROOK RD,43.519679,-79.640162
-8862991.02414101,5391846.56078463,135,LAKESHORE RD W at JOHNSONS LANE,43.522524,-79.617603
-8860798.03017238,5394636.93941067,136,LAKESHORE RD W at SHAWNMARR RD,43.540697,-79.597903
-8863713.04235829,5407196.14497301,137,TOMKEN RD at TOMKEN STATION,43.622424,-79.624089
-8861829.96185203,5393325.55787893,138,LAKESHORE RD W at LORNE PARK RD,43.532157,-79.607173
-8862761.92862895,5392123.21185602,139,LAKESHORE RD W at SILVER BIRCH TRAIL,43.524326,-79.615545
-8864051.4536103,5390515.00524956,140,LAKESHORE RD W at WALDEN CIRCLE,43.51385,-79.627129
-8864889.57805648,5390642.25770324,141,SOUTHDOWN RD at HARTLAND DR,43.514679,-79.634658
-8866016.79922026,5391792.82818308,142,SOUTHDOWN RD at SOUTH SHERIDAN WAY,43.522174,-79.644784
-8874208.57790876,5398782.06497638,143,ERIN MILLS PKY at MCFARREN BLVD,43.567683,-79.718372
-8874246.53785511,5398731.36483432,144,ERIN MILLS PKY at BANFIELD RD,43.567353,-79.718713
-8859292.76801787,5396543.2270183,145,ELIZABETH ST at LAKESHORE RD,43.553109,-79.584381
-8852861.61839576,5410539.0932883,146,BLOOR ST at GREEN LANES,43.644159,-79.526609
-8859417.89112552,5396642.14598273,147,ELIZABETH ST at HIGH ST,43.553753,-79.585505
-8873878.51561855,5397563.80204927,148,ERIN CENTRE BLVD at JOHN FRASER SECONDARY SCHOOL,43.559753,-79.715407
-8866382.595067,5405437.10300977,149,EGLINTON AVE E at ALBINA WAY,43.610984,-79.64807
-8859005.22977315,5396839.83347794,150,LAKESHORE RD E at ST LAWRENCE DR,43.55504,-79.581798
-8859618.15488946,5397512.80134828,151,HURONTARIO ST at INGLEWOOD DR,43.559421,-79.587304
-8859212.17270654,5396580.5519071,152,LAKESHORE RD E east of ELIZABETH ST,43.553352,-79.583657
-8866874.29325784,5418368.64688635,153,DERRY RD at TORBRAM RD,43.695034,-79.652487
-8868058.28736192,5416897.64653269,154,DERRY RD at BRAMALEA RD,43.685479,-79.663123
-8860828.08643489,5398673.13683203,155,HURONTARIO ST at PINETREE WAY,43.566974,-79.598173
-8860408.63459358,5398288.44176953,156,HURONTARIO ST at PINEWOOD TRAIL,43.56447,-79.594405
-8859948.77377712,5397849.07320051,157,HURONTARIO ST at MINEOLA RD E,43.56161,-79.590274
-8859645.98476216,5397498.05421002,158,HURONTARIO ST at INGLEWOOD DR,43.559325,-79.587554
-8859206.16145404,5397099.12231173,159,HURONTARIO ST at PARK ST,43.556728,-79.583603
-8866357.65950107,5405527.96839665,160,EGLINTON AVE W at FORUM DR,43.611575,-79.647846
-8859629.73211651,5396911.41367427,161,PORT CREDIT GO STATION PLATFORM 6,43.555506,-79.587408
-8859552.69902887,5396739.99078096,162,ELIZABETH ST at PARK ST,43.55439,-79.586716
-8878339.08761464,5405581.62705629,163,MEADOWVALE BLVD at MISSISSAUGA RD,43.611924,-79.755477
-8878818.87461996,5400407.2284998,164,BATTLEFORD RD at EDENWOOD DR,43.57826,-79.759787
-8858775.35502467,5397144.28355037,165,LAKESHORE RD E at ELMWOOD AVE,43.557022,-79.579733
-8857946.6927352,5398213.16385567,166,LAKESHORE RD E at SHAW DR,43.56398,-79.572289
-8858909.94028903,5400742.06885174,167,CAWTHRA RD at SOUTH SERVICE RD,43.580439,-79.580942
-8858447.2964853,5400218.06980245,168,CAWTHRA RD at ARBOR RD,43.577029,-79.576786
-8858094.41369948,5399810.72330134,169,ATWATER AVE west of CAWTHRA RD,43.574378,-79.573616
-8859470.65656416,5396291.78714194,170,LAKESHORE RD E west of STAVEBANK RD,43.551472,-79.585979
-8858637.54149506,5399003.76613324,171,ATWATER AVE at CANTERBURY RD,43.569126,-79.578495
-8858080.05348517,5399925.35011508,172,CAWTHRA RD at ATWATER AVE,43.575124,-79.573487
-8877397.88131998,5398543.16219075,173,BRITANNIA RD at LONG VALLEY RD,43.566128,-79.747022
-8874587.95473338,5402000.55612254,174,BRITANNIA RD east of QUEEN ST,43.588628,-79.72178
-8873820.40684436,5402946.41684492,175,BRITANNIA RD at RIVER GROVE AVE,43.594782,-79.714885
-8855548.20298657,5401392.26846073,176,LAKESHORE RD E at DIXIE RD,43.58467,-79.550743
-8858191.26165647,5402510.82321098,177,NORTH SERVICE RD at STANFIELD RD,43.591948,-79.574486
-8858418.57605667,5402223.87135752,178,NORTH SERVICE RD at INSLEY RD,43.590081,-79.576528
-8859455.40579392,5401501.38230313,179,NORTH SERVICE RD at CAWTHRA RD,43.58538,-79.585842
-8858072.14980132,5404017.19749117,180,DIXIE RD at KENDALL RD,43.601748,-79.573416
-8857176.02790044,5402789.17655118,181,DIXIE MALL BUS TERMINAL PLATFORM B,43.593759,-79.565366
-8857422.71189203,5398868.10221673,182,LAKESHORE RD E at HAMPTON CRES,43.568243,-79.567582
-8857282.56065313,5399081.50875304,183,LAKESHORE RD E at CAWTHRA RD,43.569632,-79.566323
-8856978.2131653,5399463.47111148,184,LAKESHORE RD E at EAST AVE,43.572118,-79.563589
-8856360.3899914,5400274.61724501,185,LAKESHORE RD E at STRATHY AVE,43.577397,-79.558039
-8856057.04437898,5400673.3787232,186,LAKESHORE RD E at HAIG BLVD,43.579992,-79.555314
-8855892.18021312,5400880.83368727,187,LAKESHORE RD E east of ORCHARD RD,43.581342,-79.553833
-8855340.25817776,5401614.18585373,188,LAKESHORE RD E east of DETA RD,43.586114,-79.548875
-8855257.88175458,5401797.68666624,189,LAKESHORE RD west of FORTY-THIRD ST,43.587308,-79.548135
-8855889.50854534,5400952.59882072,190,LAKESHORE RD E west of FERGUS AVE,43.581809,-79.553809
-8856707.81812216,5399876.6412285,191,LAKESHORE RD E at ALEXANDRA AVE,43.574807,-79.56116
-8857314.286708,5399089.80543482,192,LAKESHORE RD E at CAWTHRA RD,43.569686,-79.566608
-8857493.06581022,5398862.41758867,193,LAKESHORE RD E at HAMPTON CRES,43.568206,-79.568214
-8857945.02294283,5403951.25005337,194,DIXIE RD at KENDALL RD,43.601319,-79.572274
-8857772.70037109,5403782.15620769,195,DIXIE RD at SHERWAY DR,43.600219,-79.570726
-8857197.84652063,5402803.47101289,196,DIXIE MALL BUS TERMINAL PLATFORM A,43.593852,-79.565562
-8857781.93988882,5401552.86604184,197,OGDEN AVE at STRATHY AVE,43.585715,-79.570809
-8865780.5792608,5403179.89978816,198,CITY CENTRE DR at SQUARE ONE DR,43.596301,-79.642662
-8866899.45146275,5404862.71912741,199,EGLINTON AVE at HURONTARIO ST,43.607248,-79.652713
-8868400.14951814,5390474.02081457,200,SPEAKMAN DR at 2660 SPEAKMAN DR,43.513583,-79.666194
-8858453.3077378,5400270.62203392,201,CAWTHRA RD at ARBOR CRT,43.577371,-79.57684
-8858878.32555365,5400735.92206331,202,CAWTHRA RD at SOUTH SERVICE RD,43.580399,-79.580658
-8859548.58020771,5401534.73143851,203,CAWTHRA RD at NORTH SERVICE RD,43.585597,-79.586679
-8869506.33129815,5392631.55287544,204,DUNDAS ST at WOODCHESTER DR,43.527637,-79.676131
-8867017.450123,5392775.41645365,205,ERIN MILLS PKY at SHERIDAN CENTRE,43.528574,-79.653773
-8867348.7369276,5393075.28016702,206,ERIN MILLS PKY at LINCOLN GREEN WAY,43.530527,-79.656749
-8867600.65293526,5392831.76491034,207,SHERIDAN PARK DR at FIFTH LINE WEST,43.528941,-79.659012
-8867788.00363827,5392577.66218514,208,SHERIDAN PARK DR west of FIFTH LINE WEST,43.527286,-79.660695
-8868010.64261986,5392266.1463631,209,HOMELANDS DR at PYRAMID CRES,43.525257,-79.662695
-8868728.20805751,5391927.927889,210,HOMELANDS DR at VINELAND RD,43.523054,-79.669141
-8869491.1918474,5392451.61139619,211,WOODCHESTER DR at DUNDAS ST,43.526465,-79.675995
-8868563.12125266,5393810.93166567,212,DUNDAS ST at FIFTH LINE WEST,43.535318,-79.667658
-8868169.27289424,5390526.97826479,213,SPEAKMAN DR at 2650 SPEAKMAN DR,43.513928,-79.66412
-8866889.32138909,5392604.68425846,214,ERIN MILLS PKY at LEANNE BLVD,43.527462,-79.652622
-8872612.14509129,5392048.90520717,215,THE COLLEGEWAY at RIDGEWAY DR,43.523842,-79.704031
-8876430.96022295,5399853.74660384,216,GLEN ERIN DR at BRITANNIA RD,43.574658,-79.738336
-8868289.27530531,5394142.92294766,217,DUNDAS ST W east of ERIN MILLS PKY,43.53748,-79.665198
-8868005.1879648,5394497.50032534,218,DUNDAS ST W at SIR JOHNS HOMESTEAD,43.539789,-79.662646
-8867745.25695381,5394805.86622575,219,DUNDAS ST W at MISSISSAUGA RD,43.541797,-79.660311
-8877880.0060346,5405930.6465681,220,MEADOWVALE BLVD at FINANCIAL DR,43.614194,-79.751353
-8868314.65614921,5393924.56286454,221,ERIN MILLS PKY south of DUNDAS ST W,43.536058,-79.665426
-8875349.04609193,5398478.63645116,222,GLEN ERIN DR at THOMAS ST,43.565708,-79.728617
-8870034.98755993,5391950.1888251,223,DUNDAS ST W at WINSTON CHURCHILL BLVD,43.523199,-79.68088
-8869509.4482439,5392433.95521073,224,WOODCHESTER DR at DUNDAS ST W,43.52635,-79.676159
-8868028.67637737,5392254.01757061,225,HOMELANDS DR at PYRAMID CRES,43.525178,-79.662857
-8867770.19251974,5392566.45418923,226,SHERIDAN PARK DR east of SPEAKMAN DR,43.527213,-79.660535
-8866783.67919233,5393008.02878146,227,SHERIDAN CENTRE BUS TERMINAL PLATFORM B,43.530089,-79.651673
-8866802.49218628,5392691.73886038,228,FOWLER DR at ROCHE CRT,43.528029,-79.651842
-8866899.67410174,5392662.10642606,229,ERIN MILLS PKY at FOWLER DR,43.527836,-79.652715
-8875004.73490691,5398191.19511051,230,GLEN ERIN DR south of THOMAS ST,43.563837,-79.725524
-8874781.31668889,5398014.83252863,231,GLEN ERIN DR at DUNCAIRN DR,43.562689,-79.723517
-8874259.11695758,5397373.31893872,232,GLEN ERIN DR at ERIN CENTRE BLVD,43.558513,-79.718826
-8863019.96720861,5391758.43948168,233,LAKESHORE RD at JOHNSONS LANE,43.52195,-79.617863
-8865856.61047301,5401673.81553429,234,BURNHAMTHORPE RD at LIVING ARTS DR,43.586502,-79.643345
-8865662.91455903,5401892.66590329,235,BURNHAMTHORPE RD at DUKE OF YORK BLVD,43.587926,-79.641605
-8865240.56841095,5402386.48143815,236,BURNHAMTHORPE RD at KARIYA DRIVE,43.591139,-79.637811
-8865230.21569831,5402480.23713163,237,BURNHAMTHORPE RD at KARIYA GATE,43.591749,-79.637718
-8872820.86913653,5397511.41880308,238,EGLINTON AVE W at ERIN MILLS PKY,43.559412,-79.705906
-8864240.80806414,5397019.24583051,239,HURON PARK ACCESS RD at QUEENSWAY,43.556208,-79.62883
-8868494.9937243,5408946.90854362,240,BRITANNIA RD E at KENNEDY RD,43.633808,-79.667046
-8869627.11294567,5408128.23458444,241,BRITANNIA RD E at WHITTLE RD,43.628485,-79.677216
-8864594.13612792,5397416.48452589,242,HURON PARK RECREATION CENTRE,43.558794,-79.632004
-8866429.68321161,5406952.41158149,243,KENNEDY RD at BRISTOL RD E,43.620839,-79.648493
-8860102.61731339,5395515.69967448,244,LAKESHORE RD W west of WESLEY AVE,43.546419,-79.591656
-8866459.07155718,5396290.86556668,245,DUNDAS ST at THE CREDIT WOODLANDS,43.551466,-79.648757
-8866072.68160463,5396832.30683709,246,DUNDAS ST at OLD CARRIAGE RD,43.554991,-79.645286
-8865809.5223284,5397168.24674606,247,DUNDAS ST at GLENGARRY RD,43.557178,-79.642922
-8865409.10612002,5397633.23719031,248,DUNDAS ST at CEDARGLEN GATE,43.560205,-79.639325
-8865070.47222902,5398031.57761195,249,DUNDAS ST at WOLFEDALE RD,43.562798,-79.636283
-8864755.43807008,5398416.41562835,250,DUNDAS ST at MAVIS RD,43.565303,-79.633453
-8863710.59332949,5399669.20877819,251,DUNDAS ST at MASON HEIGHTS,43.573457,-79.624067
-8867694.60658549,5398649.9379147,252,CENTRAL PKY W west of ERINDALE STATION RD,43.566823,-79.659856
-8868144.44864779,5398878.54965038,253,CENTRAL PKY W at BURNHAMTHORPE RD W,43.568311,-79.663897
-8868676.11053582,5399077.97498342,254,CREDITVIEW RD at RATHBURN RD,43.569609,-79.668673
-8868232.27972602,5398900.67366644,255,CREDITVIEW RD at BURNHAMTHORPE RD,43.568455,-79.664686
-8867034.81596356,5398962.89774522,256,CENTRAL PKY W at SEMENYK CRT,43.56886,-79.653929
-8865722.80444507,5403168.37152559,257,CITY CENTRE DR at SQUARE ONE DR,43.596226,-79.642143
-8866324.26365383,5396536.16141843,258,DUNDAS ST at CORNERBROOK PLACE,43.553063,-79.647546
-8869152.11267845,5393072.51640183,259,DUNDAS ST at LIRUMA RD,43.530509,-79.672949
-8868998.38046167,5390876.19801732,260,SHERIDAN PARK DR at WINSTON CHURCHILL BLVD,43.516203,-79.671568
-8867924.258695,5391037.22729648,261,SPEAKMAN DR west of FLAVELLE BLVD,43.517252,-79.661919
-8864062.91951785,5398283.37201324,262,PAISLEY BLVD at CASHMERE AVE,43.564437,-79.627232
-8862288.5981541,5399458.70800833,263,CONFEDERATION PKY north of QUEENSWAY,43.572087,-79.611293
-8862523.25964069,5399686.72511646,264,CONFEDERATION PKY at PAISLEY BLVD,43.573571,-79.613401
-8860773.20592593,5398659.7705613,265,HURONTARIO ST at SOUTH SERVICE RD,43.566887,-79.59768
-8860206.14443983,5400160.90806503,266,CLIFF RD at NORTH SERVICE RD,43.576657,-79.592586
-8872663.9086545,5397235.06752328,267,ERIN MILLS PKY south of EGLINTON AVE,43.557613,-79.704496
-8862813.69219217,5400632.34929238,268,HURONTARIO ST at DUNDAS ST W,43.579725,-79.61601
-8862799.88857532,5400679.98647626,269,HURONTARIO ST at DUNDAS ST E,43.580035,-79.615886
-8862587.04570892,5400412.76041268,270,HURONTARIO ST at KING ST W,43.578296,-79.613974
-8862405.59493892,5400296.28361213,271,HURONTARIO ST at FLORADALE DR,43.577538,-79.612344
-8862194.86714285,5400033.98568481,272,HURONTARIO ST at PAISLEY BLVD W,43.575831,-79.610451
-8862123.28871028,5400031.37349914,273,HURONTARIO ST at PAISLEY BLVD E,43.575814,-79.609808
-8861972.45080024,5399817.17678396,274,HURONTARIO ST at QUEENSWAY,43.57442,-79.608453
-8861804.24704966,5399732.66724893,275,HURONTARIO ST at QUEENSWAY,43.57387,-79.606942
-8861634.4848262,5399497.42749857,276,HURONTARIO ST at BRONTE COLLEGE CRT,43.572339,-79.605417
-8861593.85321206,5399536.91539953,277,HURONTARIO ST at SHEROBEE RD,43.572596,-79.605052
-8861282.26995733,5399127.60152376,278,HURONTARIO ST at HARBORN RD,43.569932,-79.602253
-8861245.75716435,5399167.24149021,279,HURONTARIO ST at NORTH SERVICE RD,43.57019,-79.601925
-8859597.78342265,5400914.33425844,280,ASTA DR at NORTH SERVICE RD,43.58156,-79.587121
-8859467.09434045,5401379.82034358,281,NORTH SERVICE RD at CAWTHRA RD,43.584589,-79.585947
-8863444.87370497,5399982.97136875,282,DUNDAS ST at ARGYLE RD,43.575499,-79.62168
-8863149.5430959,5400330.85770729,283,DUNDAS ST at CONFEDERATION PKY,43.577763,-79.619027
-8862813.3582337,5400731.92665302,284,DUNDAS ST at HURONTARIO ST,43.580373,-79.616007
-8862657.06566863,5400928.62582343,285,DUNDAS ST at JAGUAR VALLEY,43.581653,-79.614603
-8862465.70746395,5401156.52548236,286,DUNDAS ST at CAMILLA RD,43.583136,-79.612884
-8861919.90800059,5401805.985784,287,DUNDAS ST at CLIFF RD,43.587362,-79.607981
-8861769.18141006,5401995.79171309,288,DUNDAS ST at HENSALL CIRCLE,43.588597,-79.606627
-8862469.60364613,5399600.06566143,289,CONFEDERATION PKY south of PAISLEY BLVD,43.573007,-79.612919
-8859516.63151386,5401469.10906079,290,CAWTHRA RD at NORTH SERVICE RD,43.58517,-79.586392
-8863381.53291471,5401252.11284993,291,HURONTARIO ST at JOHN ST,43.583758,-79.621111
-8874016.44046764,5395862.03583494,292,WINSTON CHURCHILL BLVD at EGLINTON AVE,43.548674,-79.716646
-8874667.88212777,5396515.11825077,293,WINSTON CHURCHILL BLVD at ERIN CENTRE BLVD,43.552926,-79.722498
-8875869.01943343,5397730.01712759,294,WINSTON CHURCHILL BLVD at THOMAS ST,43.560835,-79.733288
-8870951.25828865,5406234.62715856,295,MCLAUGHLIN RD south of BRITANNIA RD,43.616171,-79.689111
-8860199.46527038,5413528.69935944,296,COMMERCE BLVD at RENFORTH STATION,43.66359,-79.592526
-8878682.28560476,5401152.37621385,297,MEADOWVALE TOWN CENTRE BUS TERMINAL PLATFORM F,43.583109,-79.75856
-8861755.60043218,5402068.94872229,298,DUNDAS ST at HENSALL CIRCLE,43.589073,-79.606505
-8862526.8218644,5401129.78578461,299,DUNDAS ST at LITTLEJOHN LANE,43.582962,-79.613433
-8862699.81235309,5400930.77724372,300,DUNDAS ST at JAGUAR VALLEY DR,43.581667,-79.614987
-8874658.75392952,5401969.81804016,301,BRITANNIA RD at QUEEN ST N,43.588428,-79.722416
-8870752.99827555,5394205.4221753,302,GLEN ERIN DR north of THE COLLEGEWAY,43.537887,-79.68733
-8863240.82507834,5401116.5696407,303,HURONTARIO ST at KIRWIN AVE,43.582876,-79.619847
-8869388.10999893,5415177.08130686,304,DERRY RD at DIXIE RD,43.674301,-79.675069
-8859560.71403221,5403911.1284157,305,STANFIELD RD north of MIDDLEGATE RD,43.601058,-79.586788
-8859392.28764264,5403515.14794831,306,MIDDLEGATE RD at STANFIELD RD,43.598482,-79.585275
-8859561.82722712,5403297.02775051,307,MIDDLEGATE RD at 1004 MIDDLEGATE RD,43.597063,-79.586798
-8870778.49043894,5411420.90418868,308,KENNEDY RD at AMBASSADOR DR,43.649891,-79.687559
-8859175.32595508,5405083.95109322,309,DIXIE RD at DUNDAS ST,43.608687,-79.583326
-8858455.75676659,5404405.82038146,310,DIXIE RD at ERNEST SAMUEL DR,43.604276,-79.576862
-8860510.0466497,5403563.26112979,311,DUNDAS ST east of HAINES RD,43.598795,-79.595316
-8860561.14229597,5403557.26618298,312,DUNDAS ST west of TOMKEN RD,43.598756,-79.595775
-8877836.48011371,5405982.46248216,313,MEADOWVALE BLVD at FINANCIAL DR,43.614531,-79.750962
-8859200.70679898,5405188.80367204,314,DUNDAS ST east of DIXIE RD,43.609369,-79.583554
-8868469.39024142,5402263.98567703,315,MAVIS RD at WHITE CLOVER WAY,43.590342,-79.666816
-8870294.58461246,5407369.14575883,316,CANTAY RD at BRITANNIA RD W,43.623549,-79.683212
-8868576.47959156,5402723.69897669,317,EGLINTON AVE W east of MAVIS RD,43.593333,-79.667778
-8860428.89474091,5402323.31215425,318,CAWTHRA RD at ORWELL ST,43.590728,-79.594587
-8866769.65293649,5402146.40971559,319,RATHBURN RD at CONFEDERATION PKY,43.589577,-79.651547
-8861154.02990394,5402745.21737728,320,DUNDAS ST at CAWTHRA RD,43.593473,-79.601101
-8860978.14510848,5402956.71517835,321,DUNDAS ST east of CAWTHRA RD,43.594849,-79.599521
-8860673.68630116,5403344.67865834,322,DUNDAS ST at HAINES RD,43.597373,-79.596786
-8860308.78101034,5403800.75637939,323,DUNDAS ST at TOMKEN RD,43.60034,-79.593508
-8859981.72434639,5404217.34853841,324,DUNDAS ST at STANFIELD RD,43.60305,-79.59057
-8859739.38181493,5404520.50414933,325,DUNDAS ST at ARENA RD,43.605022,-79.588393
-8859548.35756873,5404758.94640134,326,DUNDAS ST at BLUNDELL RD,43.606573,-79.586677
-8859275.73613578,5405099.47903943,327,DUNDAS ST at DIXIE RD,43.608788,-79.584228
-8858968.82829966,5405463.85516291,328,DUNDAS ST at NEILCO CRT,43.611158,-79.581471
-8858611.93801218,5405925.5726218,329,DUNDAS ST at MATTAWA AVE,43.614161,-79.578265
-8858394.86500513,5406197.41706037,330,DUNDAS ST at CORAM WAY,43.615929,-79.576315
-8858087.17793258,5406604.73740324,331,DUNDAS ST at WHARTON WAY,43.618578,-79.573551
-8857704.46152323,5407114.48972671,332,DUNDAS ST at SUMMERVILLE CRT,43.621893,-79.570113
-8857398.11028457,5407521.85047576,333,DUNDAS ST east of SOUTHCREEK RD,43.624542,-79.567361
-8857450.43044524,5407526.92529817,334,DUNDAS ST at SOUTHCREEK RD,43.624575,-79.567831
-8857663.49595062,5407256.42576822,335,DUNDAS ST at UNIVERSAL DR,43.622816,-79.569745
-8858054.56132178,5406735.59421724,336,DUNDAS ST at WHARTON WAY,43.619429,-79.573258
-8858387.62923823,5406299.66830967,337,DUNDAS ST at TREADWELLS DR,43.616594,-79.57625
-8858611.93801218,5406008.7549413,338,DUNDAS ST at MATTAWA AVE,43.614702,-79.578265
-8858959.03218447,5405552.26081717,339,DUNDAS ST at NEILCO CRT,43.611733,-79.581383
-8858380.39347133,5404382.29962359,340,DIXIE RD at CATERPILLAR RD,43.604123,-79.576185
-8858977.73385892,5404940.66474082,341,DIXIE RD at BLUNDELL RD,43.607755,-79.581551
-8858843.70519201,5397099.89035816,342,LAKESHORE RD E at ST LAWRENCE DR,43.556733,-79.580347
-8876860.8760964,5403434.60120154,343,TURNER VALLEY RD at ARGENTIA RD,43.597958,-79.742198
-8859813.07531784,5404160.46953603,344,STANFIELD RD at 2530 STANFIELD RD,43.60268,-79.589055
-8878789.48627439,5401733.75297167,345,GLEN ERIN DR at AQUITAINE AVE,43.586892,-79.759523
-8871825.11629138,5401698.71257651,346,CREDITVIEW RD at BRISTOL RD,43.586664,-79.696961
-8872393.95888934,5402273.66846986,347,CREDITVIEW RD at TORRINGTON DR,43.590405,-79.702071
-8872698.30637716,5392357.18957832,348,COLONIAL DR south of HUXLEY DR,43.52585,-79.704805
-8869491.63712537,5396508.51347079,349,BURNHAMTHORPE RD W at MISSISSAUGA RD,43.552883,-79.675999
-8869349.03685767,5397243.51616165,350,BURNHAMTHORPE RD W at PROMONTORY CRES,43.557668,-79.674718
-8878663.47261081,5401217.07427899,351,MEADOWVALE TOWN CENTRE BUS TERMINAL PLATFORM H,43.58353,-79.758391
-8870368.27811536,5413711.35962905,352,TOMKEN RD south of DERRY RD,43.664777,-79.683874
-8873853.80269159,5393532.23402122,353,UNITY DR at COLONIAL DR,43.533503,-79.715185
-8869818.47115034,5395623.20840407,354,SOUTH MILLWAY at SANDERLING CRES,43.547119,-79.678935
-8869578.91160615,5396220.97971038,355,BURNHAMTHORPE RD W at SAWMILL VALLEY DR,43.551011,-79.676783
-8869267.66230989,5414239.66361959,356,COLUMBUS RD at 6830 COLUMBUS RD,43.66821,-79.673987
-8869414.82667672,5396575.17588503,357,BURNHAMTHORPE RD W at MISSISSAUGA RD,43.553317,-79.675309
-8869568.78153249,5396108.39547345,358,BURNHAMTHORPE RD W at SAWMILL VALLEY DR,43.550278,-79.676692
-8869496.53518296,5396544.6094189,359,MISSISSAUGA RD at BURNHAMTHORPE RD,43.553118,-79.676043
-8867680.13505169,5394999.67515008,360,MISSISSAUGA RD at DUNDAS ST,43.543059,-79.659726
-8868699.15367041,5395906.73027007,361,MISSISSAUGA RD at HARKISS RD,43.548965,-79.66888
-8869415.27195469,5396544.6094189,362,MISSISSAUGA RD at BURNHAMTHORPE RD,43.553118,-79.675313
-8870171.13129717,5391975.67382454,363,WINSTON CHURCHILL BLVD at DUNDAS ST,43.523365,-79.682103
-8869240.9456321,5393205.17806154,364,GLEN ERIN DR at DUNDAS ST,43.531373,-79.673747
-8869585.25681713,5393470.66063163,365,GLEN ERIN DR at DUNWIN DR,43.533102,-79.67684
-8870372.28561704,5395059.2622275,366,SOUTH COMMON CENTRE BUS TERMINAL PLATFORM E,43.543447,-79.68391
-8870192.17068093,5394734.45587786,367,SOUTH MILLWAY west of THE COLLEGEWAY,43.541332,-79.682292
-8870535.36867105,5393940.68632329,368,GLEN ERIN DR at THE COLLEGEWAY,43.536163,-79.685375
-8869667.52192083,5393496.91756316,369,GLEN ERIN DR at DUNWIN DR,43.533273,-79.677579
-8870780.04891181,5392573.05615778,370,WINSTON CHURCHILL BLVD at FRANKSTON RD,43.527256,-79.687573
-8870513.43873136,5394020.53624712,371,THE COLLEGEWAY at GLEN ERIN DR,43.536683,-79.685178
-8870231.57778068,5394769.62348573,372,SOUTH MILLWAY north of THE COLLEGEWAY,43.541561,-79.682646
-8869588.37376287,5395332.93769935,373,THE COLLEGEWAY at SOUTH MILLWAY,43.545229,-79.676868
-8869878.2497169,5394721.09529329,374,SOUTH MILLWAY at BUTTONBUSH CRES,43.541245,-79.679472
-8869295.3808631,5394460.1838338,375,SOUTH MILLWAY at FIFTH LINE WEST,43.539546,-79.674236
-8868307.64302129,5394194.05864798,376,DUNDAS ST east of ERIN MILLS PKY,43.537813,-79.665363
-8869301.5034351,5394510.0927556,377,SOUTH MILLWAY at FIFTH LINE W,43.539871,-79.674291
-8870646.13156439,5393993.51004197,378,THE COLLEGEWAY at GLEN ERIN DR,43.536507,-79.68637
-8870395.6627101,5392138.41101673,379,WINSTON CHURCHILL BLVD south of LAIRD RD,43.524425,-79.68412
-8871208.29499289,5393290.39575518,380,THE COLLEGEWAY at COUNCIL RING RD,43.531928,-79.69142
-8870039.77429803,5395050.04770593,381,THE COLLEGEWAY at SOUTH COMMON CENTRE ACCESS RD,43.543387,-79.680923
-8880522.39678757,5404292.21413695,382,MEADOWPINE BLVD at EAST DANBRO CRES,43.603537,-79.77509
-8880829.52726266,5404231.79893528,383,MEADOWPINE BLVD at DANBRO CRES,43.603144,-79.777849
-8880416.53195182,5404272.69060623,384,MEADOWPINE BLVD at EAST DANBRO CRES,43.60341,-79.774139
-8879954.8900235,5404524.65492899,385,MEADOWPINE BLVD at MEADOWVALE BLVD,43.605049,-79.769992
-8864374.83673106,5407990.28370263,386,EGLINTON AVE at TOMKEN RD,43.627588,-79.630034
-8859133.35850706,5405115.0070117,387,DIXIE RD at DUNDAS ST,43.608889,-79.582949
-8870298.48079464,5394990.46068782,388,SOUTH COMMON CENTRE BUS TERMINAL PLATFORM A,43.542999,-79.683247
-8864721.48562539,5402505.90483963,389,HURONTARIO ST at MATTHEWS GATE,43.591916,-79.633148
-8863441.42280075,5401253.95698892,390,HURONTARIO ST at JOHN ST,43.58377,-79.621649
-8864532.57644951,5402333.91718638,391,HURONTARIO ST at ELM DR W,43.590797,-79.631451
-8865943.43967583,5397068.09328908,392,DUNDAS ST west of ERINDALE STATION RD,43.556526,-79.644125
-8864314.27892807,5402106.14221352,393,HURONTARIO ST at CENTRAL PKY W,43.589315,-79.62949
-8864044.32916289,5401837.33807381,394,HURONTARIO ST at FAIRVIEW RD W,43.587566,-79.627065
-8863749.44383178,5401572.23014906,395,HURONTARIO ST at HANSON RD WALKWAY,43.585841,-79.624416
-8866094.38890534,5397449.51171252,396,FORESTWOOD DR at ERINDALE STATION RD,43.559009,-79.645481
-8863321.08643121,5401131.47622298,397,HURONTARIO ST at HILLCREST AVE,43.582973,-79.620568
-8863101.23043689,5400918.02240214,398,HURONTARIO ST south of HILLCREST AVE,43.581584,-79.618593
-8866645.53170426,5398057.38660706,399,MCBRIDE AVE at ERINDALE STATION RD,43.562966,-79.650432
-8867493.45226563,5397441.83096093,400,THE CREDIT WOODLANDS at MCBRIDE AVE,43.558959,-79.658049
-8868718.6345813,5398226.52948139,401,BURNHAMTHORPE RD W at THE CREDIT WOODLANDS,43.564067,-79.669055
-8867882.62520545,5399217.3294426,402,BURNHAMTHORPE RD W at ERINDALE STATION RD,43.570516,-79.661545
-8867562.02507196,5399607.74820444,403,BURNHAMTHORPE RD W at PERIVALE RD,43.573057,-79.658665
-8867179.64262109,5400065.02465329,404,BURNHAMTHORPE RD W at WOLFEDALE RD,43.576033,-79.65523
-8866793.03002956,5400529.23867954,405,BURNHAMTHORPE RD W at MAVIS RD,43.579054,-79.651757
-8866493.35796034,5400900.6574051,406,BURNHAMTHORPE RD W at GRAND PARK DR,43.581471,-79.649065
-8866050.083748,5401444.05895505,407,BURNHAMTHORPE RD W at CONFEDERATION PKY,43.585007,-79.645083
-8874632.03725173,5408659.91069591,408,MAVIS RD south of DERRY RD,43.631942,-79.722176
-8868275.80564692,5402073.09840192,409,MAVIS RD south of WHITE CLOVER WAY,43.5891,-79.665077
-8865113.99814993,5398152.6347119,410,WOLFEDALE RD at DUNDAS ST,43.563586,-79.636674
-8872569.28708733,5411242.13530417,411,EDWARDS BLVD at DERRY RD,43.648729,-79.703646
-8869227.92125168,5393158.03996248,412,GLEN ERIN DR south of MOTORWAY BLVD,43.531066,-79.67363
-8863493.07504448,5399982.35674015,413,DUNDAS ST at PARKERHILL RD,43.575495,-79.622113
-8863701.57645074,5399716.07273998,414,DUNDAS ST at BREAKWATER COURT,43.573762,-79.623986
-8870214.65721807,5402734.76557646,415,TERRY FOX WAY at WINDSOR HILL BLVD,43.593405,-79.682494
-8868195.98957203,5398846.13191681,416,BURNHAMTHORPE RD W at CENTRAL PKY W,43.5681,-79.66436
-8868177.84449503,5398944.0000178,417,BURNHAMTHORPE RD W at CREDITVIEW RD,43.568737,-79.664197
-8868398.2570868,5398695.87490014,418,BURNHAMTHORPE RD W west of CREDITVIEW RD,43.567122,-79.666177
-8866434.6925887,5397286.22030632,419,FORESTWOOD DR at VALMARIE AVE,43.557946,-79.648538
-8867250.99841468,5397605.27873017,420,MCBRIDE AVE at ELLENGALE DR,43.560023,-79.655871
-8868780.19425971,5402576.14557838,421,MAVIS RD at EGLINTON AVE W,43.592373,-79.669608
-8862915.10424828,5400665.84896384,422,DUNDAS ST at HURONTARIO ST,43.579943,-79.616921
-8863245.72313594,5400268.77809092,423,DUNDAS ST at CONFEDERATION PKY,43.577359,-79.619891
-8858806.63580158,5405672.9551185,424,DUNDAS ST at JARROW AVE,43.612518,-79.580014
-8858817.99038964,5405738.14607154,425,DUNDAS ST at JARROW AVE,43.612942,-79.580116
-8864649.79587332,5398637.49348633,426,DUNDAS ST at MAVIS RD,43.566742,-79.632504
-8865044.31214869,5398115.61073533,427,DUNDAS ST at WOLFEDALE RD,43.563345,-79.636048
-8865388.7346532,5397700.67580161,428,DUNDAS ST at CEDARGLEN GATE,43.560644,-79.639142
-8865897.13076765,5397121.24207455,429,DUNDAS ST at ERINDALE STATION RD,43.556872,-79.643709
-8866065.8911157,5396913.71776704,430,DUNDAS ST at OLD CARRIAGE RD,43.555521,-79.645225
-8866432.2435599,5396420.50138729,431,DUNDAS ST at THE CREDIT WOODLANDS,43.55231,-79.648516
-8864693.09915524,5402551.0924747,432,HURONTARIO ST at MATTHEWS GATE,43.59221,-79.632893
-8864496.84289297,5402330.53587047,433,HURONTARIO ST at ELM DR E,43.590775,-79.63113
-8864230.56667099,5402088.16021769,434,HURONTARIO ST at CENTRAL PKY E,43.589198,-79.628738
-8863974.19788369,5401823.65985588,435,HURONTARIO ST at FAIRVIEW RD E,43.587477,-79.626435
-8863758.46071053,5401616.64480203,436,HURONTARIO ST at HANSON RD WALKWAY,43.58613,-79.624497
-8864190.93693227,5402147.02448797,437,CENTRAL PKY E at HURONTARIO ST,43.589581,-79.628382
-8863920.54188913,5402323.77324235,438,MISSISSAUGA VALLEY BLVD at CENTRAL PKY E,43.590731,-79.625953
-8863761.13237831,5402037.44195622,439,MISSISSAUGA VALLEY BLVD at FAIRVIEW RD,43.588868,-79.624521
-8863426.95126696,5401815.97547265,440,MISSISSAUGA VALLEY BLVD at VOLTARIE CRES,43.587427,-79.621519
-8862997.25803249,5402197.74335024,441,MISSISSAUGA VALLEY BLVD at TRISHA DOWNS,43.589911,-79.617659
-8862579.69862253,5402349.9016056,442,MISSISSAUGA VALLEY BLVD at CLIFF RD,43.590901,-79.613908
-8862446.56051154,5402559.3922684,443,MISSISSAUGA VALLEY BLVD at LOLITA GDNS,43.592264,-79.612712
-8862266.11161696,5402797.16915071,444,MISSISSAUGA VALLEY BLVD at SILVERCREEK BLVD,43.593811,-79.611091
-8862229.26486551,5403101.04675914,445,MISSISSAUGA VALLEY BLVD at GWENDALE CRES,43.595788,-79.61076
-8862419.84383375,5403587.24095587,446,MISSISSAUGA VALLEY BLVD at BLOOR ST,43.598951,-79.612472
-8862101.69272906,5403887.76263794,447,BLOOR ST at CAWTHRA RD,43.600906,-79.609614
-8864233.46097775,5402579.52698407,448,MISSISSAUGA VALLEY BLVD at ELM DR,43.592395,-79.628764
-8864322.73920937,5402936.57964162,449,MISSISSAUGA VALLEY BLVD at ARISTA WAY,43.594718,-79.629566
-8863964.17912952,5403358.35912562,450,MISSISSAUGA VALLEY BLVD at MISSISSAUGA VALLEY CC,43.597462,-79.626345
-8862950.94912432,5403412.00519818,451,BLOOR ST at MICHELLE ROW,43.597811,-79.617243
-8871781.92432895,5405520.89593179,452,BRITANNIA RD at MAVIS RD,43.611529,-79.696573
-8863192.84637781,5403377.26587213,453,BLOOR ST at HYACINTHE BLVD,43.597585,-79.619416
-8863976.20163453,5403379.26414842,454,MISSISSAUGA VALLEY BLVD at MISSISSAUGA VALLEY CC,43.597598,-79.626453
-8864374.16881411,5402911.21815009,455,MISSISSAUGA VALLEY BLVD at ARISTA WAY,43.594553,-79.630028
-8864250.60417933,5402624.10017466,456,MISSISSAUGA VALLEY BLVD at KANEFF CRES,43.592685,-79.628918
-8868789.87905541,5402644.38873253,457,MAVIS RD north of EGLINTON AVE,43.592817,-79.669695
-8873155.49552585,5403766.47675318,458,BRITANNIA RD at WHITEHORN AVE,43.600117,-79.708912
-8869685.22171986,5395508.94202461,459,SOUTH MILLWAY at SANDERLING CRES,43.546375,-79.677738
-8862418.28536087,5403509.76789566,460,MISSISSAUGA VALLEY BLVD south of BLOOR ST,43.598447,-79.612458
-8862265.22106103,5402848.35269213,461,MISSISSAUGA VALLEY BLVD at SILVERCREEK BLVD,43.594144,-79.611083
-8862435.98515991,5402615.95402378,462,MISSISSAUGA VALLEY BLVD at LOLITA GARDENS,43.592632,-79.612617
-8862578.8080666,5402402.4659482,463,MISSISSAUGA VALLEY BLVD at CLIFF RD,43.591243,-79.6139
-8862954.62266752,5402217.87727874,464,MISSISSAUGA VALLEY BLVD at TRISHA DOWNS,43.590042,-79.617276
-8863219.78569459,5402082.47361089,465,MISSISSAUGA VALLEY BLVD at THORNWOOD PS,43.589161,-79.619658
-8863404.01945185,5401869.61260079,466,MISSISSAUGA VALLEY BLVD at VOLTARIE CRES,43.587776,-79.621313
-8863723.06111246,5402006.39636974,467,MISSISSAUGA VALLEY BLVD at FAIRVIEW RD,43.588666,-79.624179
-8863894.04785032,5402337.14480727,468,MISSISSAUGA VALLEY BLVD at CENTRAL PKY E,43.590818,-79.625715
-8864828.57497553,5402867.41210125,469,BURNHAMTHORPE RD east of HURONTARIO ST,43.594268,-79.63411
-8864659.92594698,5403066.76972614,470,BURNHAMTHORPE RD at ARISTA WAY,43.595565,-79.632595
-8864418.80792992,5403343.91009337,471,BURNHAMTHORPE RD at ROBERT SPECK PKY,43.597368,-79.630429
-8864090.41543208,5403729.89146266,472,BURNHAMTHORPE RD east of ROBERT SPECK PKY,43.599879,-79.627479
-8863883.58381819,5403975.69205589,473,BURNHAMTHORPE RD at CENTRAL PKY E,43.601478,-79.625621
-8863437.3039796,5404523.27133555,474,BURNHAMTHORPE RD at MOLLY AVE,43.60504,-79.621612
-8863230.24972672,5404784.15922325,475,BURNHAMTHORPE RD at CAWTHRA RD,43.606737,-79.619752
-8871735.05882333,5392022.80590586,476,GARTHWOOD RD at MULCASTER RD,43.523672,-79.696152
-8861074.43646802,5402896.76981631,477,DUNDAS ST at CAWTHRA RD,43.594459,-79.600386
-8878143.05399135,5397929.11046652,478,GROSSBEAK DR at SOUTH PRAIRIE CIRCLE,43.562131,-79.753716
-8878794.161693,5400395.85735595,479,BATTLEFORD RD at EDENWOOD DR,43.578186,-79.759565
-8861206.4613841,5403107.04141025,480,CAWTHRA RD at DUNDAS ST,43.595827,-79.601572
-8859570.28750842,5405465.85389011,481,DIXIE RD south of GOLDEN ORCHARD DR,43.611171,-79.586874
-8860307.22253747,5403876.38721486,482,DUNDAS ST at TOMKEN RD,43.600832,-79.593494
-8854192.88818616,5409724.43140888,483,AUKLAND RD north of DUNDAS ST W,43.638863,-79.538568
-8858836.24678613,5408227.89268957,484,BLOOR ST at MARKLAND DR,43.629133,-79.58028
-8860361.54644898,5403858.40177721,485,TOMKEN RD at DUNDAS ST,43.600715,-79.593982
-8860556.46687735,5404080.37834467,486,TOMKEN RD at RYMAL RD,43.602159,-79.595733
-8861259.89473968,5407124.02382375,487,DIXIE RD at BURNHAMTHORPE RD,43.621955,-79.602052
-8860920.92689021,5406766.65568362,488,DIXIE RD at WINDING TRAIL,43.619631,-79.599007
-8860510.93720562,5406370.70668542,489,DIXIE RD at BLOOR ST,43.617056,-79.595324
-8859391.06312824,5405293.81118517,490,DIXIE RD north of DUNDAS ST,43.610052,-79.585264
-8861016.55033281,5404526.96091848,491,TOMKEN RD at FLAGSHIP DR,43.605064,-79.599866
-8861457.70947482,5404951.11903479,492,TOMKEN RD at BLOOR ST,43.607823,-79.603829
-8861916.56841587,5405392.05501874,493,TOMKEN RD at RUNNINGBROOK DR,43.610691,-79.607951
-8861452.58877824,5404911.45427618,494,TOMKEN RD at BLOOR ST,43.607565,-79.603783
-8861420.75140387,5404850.72755289,495,BLOOR ST at TOMKEN RD,43.60717,-79.603497
-8861771.96439733,5404304.35871622,496,BLOOR ST at RYMAL RD,43.603616,-79.606652
-8861547.98958185,5404664.70640129,497,BLOOR ST at ANNELIESE AVE,43.60596,-79.60464
-8861237.51952203,5405083.02864179,498,BLOOR ST at TASMANIA DR,43.608681,-79.601851
-8861060.29889268,5405372.06792578,499,BLOOR ST at IVERNIA RD,43.610561,-79.600259
-8860884.52541672,5405648.8161322,500,BLOOR ST at QUEEN FREDERICA DR,43.612361,-79.59868
-8860643.74135814,5406025.36074348,501,BLOOR ST at GOLDEN ORCHARD DR,43.61481,-79.596517
-8860484.10920835,5406244.16034831,502,BLOOR ST at DIXIE RD,43.616233,-79.595083
-8860143.13760804,5406666.24448819,503,BLOOR ST at HAVENWOOD DR,43.618978,-79.59202
-8859921.72314085,5406951.79648958,504,BLOOR ST east of HAVENWOOD DR,43.620835,-79.590031
-8859673.48067638,5407267.49779374,505,BLOOR ST at FIELDGATE DR,43.622888,-79.587801
-8859476.11121921,5407518.77482716,506,BLOOR ST east of FIELDGATE DR,43.624522,-79.586028
-8859316.81302788,5407718.23275705,507,BLOOR ST at BRIDGEWOOD DR,43.625819,-79.584597
-8859074.13653795,5407953.68169606,508,BLOOR ST east of BRIDGEWOOD DR,43.62735,-79.582417
-8859092.50425393,5407969.36825256,509,BLOOR ST west of MARKLAND DR,43.627452,-79.582582
-8859334.40150743,5407737.91735045,510,BLOOR ST at BRIDGEWOOD DR,43.625947,-79.584755
-8859497.9298394,5407535.84468978,511,BLOOR ST west of BRIDGEWOOD DR,43.624633,-79.586224
-8859654.89032142,5407341.31163609,512,BLOOR ST at FIELDGATE DR,43.623368,-79.587634
-8859896.78757492,5407035.91068855,513,BLOOR ST west of FIELDGATE DR,43.621382,-79.589807
-8860136.56975809,5406728.36705933,514,BLOOR ST at HAVENWOOD DR,43.619382,-79.591961
-8860395.94417163,5406404.6884391,515,BLOOR ST at DIXIE RD,43.617277,-79.594291
-8860669.79011899,5406035.50874839,516,BLOOR ST at GOLDEN ORCHARD DR,43.614876,-79.596751
-8860859.47853129,5405743.83492651,517,BLOOR ST at GRAND FORKS RD,43.612979,-79.598455
-8861062.30264352,5405417.88455672,518,BLOOR ST at RUNNINGBROOK DR,43.610859,-79.600277
-8861390.2498634,5404941.58717804,519,BLOOR ST at TOMKEN RD,43.607761,-79.603223
-8861579.82695622,5404661.0167634,520,BLOOR ST at ANNELIESE AVE,43.605936,-79.604926
-8861831.74296388,5404276.38008919,521,BLOOR ST at CEDAR CREEK DR,43.603434,-79.607189
-8859234.10264622,5405205.86923358,522,DUNDAS ST at DIXIE RD,43.60948,-79.583854
-8859312.47156774,5405292.58122204,523,DIXIE RD north of DUNDAS ST,43.610044,-79.584558
-8859752.07223688,5405723.6933206,524,DIXIE RD at GOLDEN ORCHARD RD,43.612848,-79.588507
-8860511.1598446,5406439.90043327,525,DIXIE RD at BLOOR ST,43.617506,-79.595326
-8860827.52983744,5406741.5912249,526,DIXIE RD at WINDING TRAIL,43.619468,-79.598168
-8861196.44262993,5407120.1794286,527,DIXIE RD at BURNHAMTHORPE RD,43.62193,-79.601482
-8859473.99614889,5405447.557865,528,DIXIE RD 3105 DIXIE RD,43.611052,-79.586009
-8859343.52970567,5405089.63954573,529,DUNDAS ST west of DIXIE RD,43.608724,-79.584837
-8859607.02294038,5404761.86739548,530,DUNDAS ST at QUEEN FREDERICA DR,43.606592,-79.587204
-8859722.57257183,5404617.04869185,531,DUNDAS ST at ARENA RD,43.60565,-79.588242
-8860392.15930895,5403764.78583319,532,DUNDAS ST at TOMKEN RD,43.600106,-79.594257
-8860658.32421143,5403434.29377255,533,DUNDAS ST at HAINES RD,43.597956,-79.596648
-8862862.67276813,5405239.07798415,534,BURNHAMTHORPE RD E east of CAWTHRA RD,43.609696,-79.61645
-8862596.61918512,5405564.09955156,535,BURNHAMTHORPE RD E at FLAMEWOOD DR,43.61181,-79.61406
-8862338.46928597,5405885.90368305,536,BURNHAMTHORPE RD E at TOMKEN RD,43.613903,-79.611741
-8862152.56573635,5406132.53038787,537,BURNHAMTHORPE RD E at AUTUMN HARVEST DR,43.615507,-79.610071
-8861754.04195931,5406622.42064825,538,BURNHAMTHORPE RD E at GOLDEN ORCHARD DR,43.618693,-79.606491
-8861353.40311194,5407140.93918138,539,BURNHAMTHORPE RD E at DIXIE RD,43.622065,-79.602892
-8860961.78114333,5407623.03988515,540,BURNHAMTHORPE RD E at HAVENWOOD DR,43.6252,-79.599374
-8860534.53693767,5408166.83659336,541,BURNHAMTHORPE RD E at FIELDGATE DR,43.628736,-79.595536
-8859942.31724665,5408915.68594492,542,BURNHAMTHORPE RD east of PONYTRAIL DR,43.633605,-79.590216
-8862427.97015657,5419007.6159124,543,NORTHWEST DR at AMERICAN DR,43.699184,-79.612545
-8862731.09313,5418387.43040514,544,AMERICAN DR at NORTHAM DR,43.695156,-79.615268
-8866214.05735794,5402941.19082936,545,CITY CENTRE TRANSIT TERMINAL PLATFORM A,43.594748,-79.646556
-8863498.52969953,5420778.17608429,546,GOREWAY DR at NASHUA DR,43.710682,-79.622162
-8867167.28615761,5401175.88876001,547,RATHBURN RD at MAVIS RD,43.583262,-79.655119
-8866994.96358586,5401342.01505347,548,RATHBURN RD at WEST ELORA DR,43.584343,-79.653571
-8865840.9144248,5401765.8734505,549,BURNHAMTHORPE RD W at LIVING ARTS DR,43.587101,-79.643204
-8866026.59533545,5401539.34192751,550,BURNHAMTHORPE RD W at CONFEDERATION PKY,43.585627,-79.644872
-8866878.07812053,5401832.7274363,551,RATHBURN RD at EAST ELORA DR,43.587536,-79.652521
-8865363.68776777,5402701.87322153,552,CITY CENTRE DR at SQUARE ONE PARKING LOT 1,43.593191,-79.638917
-8868568.6872272,5402783.02840242,553,EGLINTON AVE west of GUILDWOOD WAY,43.593719,-79.667708
-8868728.20805751,5399095.33656015,554,RATHBURN RD at CREDITVIEW RD,43.569722,-79.669141
-8870481.4900375,5400333.93096645,555,CREDITVIEW RD at EGLINTON AVE,43.577783,-79.684891
-8865737.94389582,5406225.24773953,556,EGLINTON AVE E at CENTRAL PKY E,43.61611,-79.642279
-8867156.04288904,5400160.13976451,557,BURNHAMTHORPE RD W at WOLFEDALE RD,43.576652,-79.655018
-8867546.88562121,5399694.71503616,558,BURNHAMTHORPE RD W at PERIVALE RD,43.573623,-79.658529
-8867968.34121336,5399199.3530604,559,BURNHAMTHORPE RD W at ERINDALE STATION RD,43.570399,-79.662315
-8866485.12031803,5400983.64087104,560,BURNHAMTHORPE RD W at ELORA DR,43.582011,-79.648991
-8866752.50973491,5400647.56243089,561,BURNHAMTHORPE RD W at MAVIS RD,43.579824,-79.651393
-8869510.89539728,5399637.86383457,562,CREDITVIEW RD at ROSE HAVEN RD,43.573253,-79.676172
-8870249.50021869,5400093.75884068,563,CREDITVIEW RD at RATHKEALE RD,43.57622,-79.682807
-8870470.13544944,5400266.01217711,564,CREDITVIEW RD at EGLINTON AVE,43.577341,-79.684789
-8868700.04422634,5399216.71486485,565,RATHBURN RD at DEER RUN,43.570512,-79.668888
-8868194.65373814,5399963.91790116,566,RATHBURN RD at PERIVALE RD,43.575375,-79.664348
-8867971.4581591,5400295.20797569,567,RATHBURN RD at QUEENSBRIDGE DR,43.577531,-79.662343
-8867557.01569488,5400688.28459143,568,RATHBURN RD at QUEENSBRIDGE DR,43.580089,-79.65862
-8867255.45119431,5401007.15298837,569,RATHBURN RD at MAVIS RD,43.582164,-79.655911
-8869814.68628765,5399866.80728882,570,CREDITVIEW RD at ROSEMANOR DR,43.574743,-79.678901
-8869561.54576559,5399660.75792509,571,CREDITVIEW RD at IVORYROSE ST,43.573402,-79.676627
-8865956.90933421,5401839.79708143,572,LIVING ARTS DR at CITY CENTRE DR,43.587582,-79.644246
-8868780.75085717,5398221.92064275,573,BURNHAMTHORPE RD W at THE CREDIT WOODLANDS,43.564037,-79.669613
-8865153.29393018,5404011.81714646,574,RATHBURN RD at WOODINGTON DR,43.601713,-79.637027
-8864854.51241688,5404654.71363541,575,RATHBURN RD at CENTRAL PKY E,43.605895,-79.634343
-8864573.7646611,5404953.27139091,576,RATHBURN RD at 425 MEADOWS BLVD,43.607837,-79.631821
-8863270.99266035,5405573.93955013,577,RATHBURN RD at WILLOWBANK TRAIL,43.611874,-79.620118
-8863045.45937201,5405946.79096122,578,RATHBURN RD at WESTMINSTER PLACE,43.614299,-79.618092
-8865138.26579892,5403330.69078575,579,ROBERT SPECK PKY at SHIPP DR,43.597282,-79.636892
-8865900.58167187,5401743.43520952,580,LIVING ARTS DR at BURNHAMTHORPE RD,43.586955,-79.64374
-8861965.54899182,5407831.11216629,581,DIXIE RD at RATHBURN RD,43.626553,-79.608391
-8861650.62615236,5407518.31347996,582,DIXIE RD south of RATHBURN RD,43.624519,-79.605562
-8863961.73010072,5407437.88563646,583,TOMKEN RD at PHILIP POCOCK SECONDARY SCHOOL,43.623996,-79.626323
-8864305.15072982,5404986.17175378,584,RATHBURN RD at MEADOWS BLVD,43.608051,-79.629408
-8872104.41689378,5411728.60399995,585,DERRY RD at KENDERRY GATE,43.651891,-79.69947
-8872069.23993469,5411854.14846617,586,DERRY RD at BECKETT DR,43.652707,-79.699154
-8865196.37457311,5403316.39550925,587,ROBERT SPECK PKY west of SHIPP DR,43.597189,-79.637414
-8862807.34698119,5406244.62163194,588,RATHBURN RD at TOMKEN RD,43.616236,-79.615953
-8862316.98462425,5407112.79819439,589,RATHBURN RD at GOLDEN ORCHARD DR,43.621882,-79.611548
-8861789.10759891,5407818.3478043,590,RATHBURN RD at DIXIE RD,43.62647,-79.606806
-8861683.24276317,5407959.21812473,591,RATHBURN RD at BOUGH BEECHES BLVD,43.627386,-79.605855
-8861363.75582459,5408419.06085832,592,RATHBURN RD at ROCKWOOD RD,43.630376,-79.602985
-8861102.37766021,5408778.9537377,593,RATHBURN RD at FIELDGATE DR,43.632716,-79.600637
-8860881.96506843,5409083.95085232,594,RATHBURN RD west of CAPALANO CRT,43.634699,-79.598657
-8860510.82588613,5409165.00825835,595,RATHBURN RD at PONYTRAIL DR,43.635226,-79.595323
-8860160.16949013,5409006.58552818,596,PONYTRAIL DR at LOOKOUT CRT,43.634196,-79.592173
-8860664.11282495,5409235.45341246,597,RATHBURN RD east of CAPILANO CRT,43.635684,-79.5967
-8861080.11376205,5408875.38895372,598,RATHBURN RD at FIELDGATE DR,43.633343,-79.600437
-8861348.72769334,5408493.65288943,599,RATHBURN RD at ROCKWOOD RD,43.630861,-79.60285
-8861676.7862327,5408018.7349423,600,RATHBURN RD at BOUGH BEECHES BLVD,43.627773,-79.605797
-8861826.06566986,5407838.34018632,601,RATHBURN RD at DIXIE RD,43.6266,-79.607138
-8862307.63378702,5407177.69174692,602,RATHBURN RD at GOLDEN ORCHARD DR,43.622304,-79.611464
-8862974.2148979,5406083.94256161,603,RATHBURN RD at WESTMINSTER PLACE,43.615191,-79.617452
-8863282.34724841,5405635.13227624,604,RATHBURN RD at WILLOWBANK TRAIL,43.612272,-79.62022
-8862150.33934653,5408084.71139721,605,DIXIE RD at HICKORY DR,43.628202,-79.610051
-8861812.37337249,5407746.83694564,606,DIXIE RD at RATHBURN RD,43.626005,-79.607015
-8861583.16654094,5407513.08487996,607,DIXIE RD at ROCKWOOD MALL,43.624485,-79.604956
-8860629.26982433,5408113.47051209,608,BURNHAMTHORPE RD at FIELDGATE DR,43.628389,-79.596387
-8861383.34805497,5407163.54429854,609,BURNHAMTHORPE RD at DIXIE RD,43.622212,-79.603161
-8861815.71295721,5406598.58671725,610,BURNHAMTHORPE RD at GOLDEN ORCHARD DR,43.618538,-79.607045
-8862112.93599763,5406224.17141336,611,BURNHAMTHORPE RD at CORBET DR,43.616103,-79.609715
-8862319.32233356,5405974.77464274,612,BURNHAMTHORPE RD at TOMKEN RD,43.614481,-79.611569
-8862664.74671349,5405527.81464736,613,BURNHAMTHORPE RD at WESTMINSTER PLACE,43.611574,-79.614672
-8863188.39359818,5404898.38646661,614,BURNHAMTHORPE RD at CAWTHRA RD,43.60748,-79.619376
-8863425.1701551,5404590.91392321,615,BURNHAMTHORPE RD at MOLLY AVE,43.60548,-79.621503
-8863629.5527402,5404324.34350165,616,BURNHAMTHORPE RD at MIDHURST LANE WALKWAY,43.603746,-79.623339
-8864021.73130626,5403879.61537404,617,BURNHAMTHORPE RD at CENTRAL PKY E,43.600853,-79.626862
-8864525.34068261,5403283.19366197,618,BURNHAMTHORPE RD at ROBERT SPECK PKY,43.596973,-79.631386
-8864691.20672389,5403089.36488609,619,BURNHAMTHORPE RD at ABSOLUTE AVE,43.595712,-79.632876
-8864926.75876641,5402805.16175714,620,BURNHAMTHORPE RD at HURONTARIO ST,43.593863,-79.634992
-8864634.54510308,5404950.19659662,621,RATHBURN RD west of MEADOWS BLVD,43.607817,-79.632367
-8864833.69567211,5404747.1086977,622,RATHBURN RD at CENTRAL PKY E,43.606496,-79.634156
-8865165.20511569,5404045.32905877,623,RATHBURN RD at WOODINGTON DR,43.601931,-79.637134
-8862415.05709564,5405945.86842371,624,TOMKEN RD at BURNHAMTHORPE RD,43.614293,-79.612429
-8862867.01422826,5406388.23571923,625,TOMKEN RD at RATHBURN RD,43.61717,-79.616489
-8863239.48924446,5406716.37306506,626,TOMKEN RD at WILLOWBANK TRAIL,43.619304,-79.619835
-8862733.43083931,5406208.79533896,627,TOMKEN RD at RATHBURN RD,43.616003,-79.615289
-8862451.23593015,5405922.95877176,628,TOMKEN RD at BURNHAMTHORPE RD,43.614144,-79.612754
-8866422.44744471,5404341.407468,629,HURONTARIO ST at ELIA AVE,43.603857,-79.648428
-8864282.77551217,5405021.37834651,630,RATHBURN RD at MEADOWS BLVD,43.60828,-79.629207
-8866350.42373416,5404527.11465114,631,ELIA AVE at HURONTARIO ST,43.605065,-79.647781
-8865416.45320641,5403693.76747328,632,RATHBURN RD at SHIPP DR,43.599644,-79.639391
-8862781.07558137,5406329.95949838,633,RATHBURN RD E at TOMKEN RD,43.616791,-79.615717
-8866329.16171143,5404648.5642464,634,SORRENTO DR at ELIA AVE,43.605855,-79.64759
-8865686.51429107,5406250.77208245,635,CENTRAL PKY at EGLINTON AVE,43.616276,-79.641817
-8865668.36921407,5406177.12070629,636,CENTRAL PKY at EGLINTON AVE,43.615797,-79.641654
-8865470.88843741,5405768.28166744,637,CENTRAL PKY at BUD GREGORY BLVD,43.613138,-79.63988
-8871593.23779206,5405678.49018156,638,BRITANNIA RD at MAVIS RD,43.612554,-79.694878
-8863155.66566789,5400292.1347294,639,CONFEDERATION PKY at DUNDAS ST,43.577511,-79.619082
-8863437.63793807,5400417.21667823,640,CONFEDERATION PKY at AGNES ST,43.578325,-79.621615
-8863688.10679235,5400532.15833831,641,CONFEDERATION PKY at HILLCREST AVE,43.579073,-79.623865
-8865493.82025251,5401317.42632981,642,CONFEDERATION PKY at RIEL DR,43.584183,-79.640086
-8865769.33599222,5401332.94795401,643,CONFEDERATION PKY at WEBB DR,43.584284,-79.642561
-8870610.8432858,5400259.86570494,644,EGLINTON AVE west of CREDITVIEW RD,43.577301,-79.686053
-8865779.57738538,5401294.37446073,645,CONFEDERATION PKY at WEBB DR,43.584033,-79.642653
-8863765.02856049,5400544.45164852,646,CONFEDERATION PKY at HILLCREST AVE,43.579153,-79.624556
-8863231.25160214,5400305.96434576,647,CONFEDERATION PKY at DUNDAS ST,43.577601,-79.619761
-8871108.21877067,5391414.25245979,648,LAIRD RD east of RIDGEWAY DR,43.519708,-79.690521
-8870989.44087399,5390822.16403423,649,DUNDAS ST W at VEGA BLVD,43.515851,-79.689454
-8871097.97737752,5391104.46437307,650,LAIRD RD west of RIDGEWAY DR,43.51769,-79.690429
-8870933.22453115,5391766.72960337,651,LAIRD RD at COLONIAL DR,43.522004,-79.688949
-8870543.94027184,5392258.31638132,652,LAIRD RD at WINSTON CHURCHILL BLVD,43.525206,-79.685452
-8869599.39439245,5392580.57933699,653,DUNDAS ST at WOODCHESTER DR,43.527305,-79.676967
-8865119.67544395,5401095.36237946,654,CENTRAL PKY W at FATHER GOETZ SECONDARY SCHOOL,43.582738,-79.636725
-8873173.97456132,5402264.75415228,655,RIVER GROVE AVE at RIVERDALE CRES,43.590347,-79.709078
-8873039.16665797,5402011.16078466,656,RIVER GROVE AVE at SOUTH RIVERDALE CRES,43.588697,-79.707867
-8871859.29137505,5401666.28496064,657,BRISTOL RD W at CREDITVIEW RD,43.586453,-79.697268
-8868560.33826539,5393897.99760802,658,DUNDAS ST at FIFTH LINE WEST,43.535885,-79.667633
-8866568.27597765,5420712.26290551,659,MORNING STAR DR at AIRPORT RD,43.710254,-79.649738
-8866781.34148303,5392981.61969512,660,SHERIDAN CENTRE BUS TERMINAL PLATFORM C,43.529917,-79.651652
-8877665.82733432,5398226.2222254,661,BRITANNIA RD at TENTH LINE,43.564065,-79.749429
-8869019.86512339,5402249.23096457,662,EGLINTON AVE at HEATHERLEIGH AVE,43.590246,-79.671761
-8869023.87262506,5402174.53559391,663,EGLINTON AVE W at SANDFORD FARM DR,43.58976,-79.671797
-8871709.23270146,5398964.28050728,664,EGLINTON AVE at MISSISSAUGA RD,43.568869,-79.69592
-8871757.87931894,5398942.92453854,665,MISSISSAUGA RD at EGLINTON AVE,43.56873,-79.696357
-8871615.05641225,5398994.70132483,666,EGLINTON AVE east of MISSISSAUGA RD,43.569067,-79.695074
-8875268.11682212,5398451.13633221,667,GLEN ERIN DR at THOMAS ST,43.565529,-79.72789
-8871103.32071308,5396203.62352456,668,ERIN MILLS PKY at FOLKWAY DR,43.550898,-79.690477
-8870968.62412922,5396179.35563788,669,ERIN MILLS PKY at FOLKWAY DR,43.55074,-79.689267
-8872116.55071828,5398391.06652417,670,EGLINTON AVE at THE CHASE,43.565138,-79.699579
-8862472.72059187,5412774.09066286,671,EXPLORER DR at SATELLITE DR,43.658686,-79.612947
-8865668.59185306,5401505.68541062,672,WEBB DR east of CONFEDERATION PKY,43.585408,-79.641656
-8873355.87060927,5397674.56056354,673,ERIN MILLS TOWN CENTRE BUS TERMINAL PLATFORM A,43.560474,-79.710712
-8862335.79761819,5412851.17979308,674,EXPLORER DR east of SATELLITE DR,43.659187,-79.611717
-8873053.3042333,5397275.77467,675,EGLINTON AVE at ERIN MILLS TOWN CENTRE SOUTH,43.557878,-79.707994
-8873068.44368405,5397193.43889048,676,EGLINTON AVE at ERIN MILLS TOWN CENTRE SOUTH,43.557342,-79.70813
-8878728.37187394,5400559.51097577,677,WINSTON CHURCHILL BLVD at BATTLEFORD RD,43.579251,-79.758974
-8875940.59786601,5397742.15309588,678,WINSTON CHURCHILL BLVD at THOMAS ST,43.560914,-79.733931
-8874756.9377204,5396545.53101941,679,WINSTON CHURCHILL BLVD at ERIN CENTRE BLVD,43.553124,-79.723298
-8864987.42788889,5404866.87006068,680,CENTRAL PKY at CENTRAL PKY STATION,43.607275,-79.635537
-8871717.69298276,5398863.49305858,681,EGLINTON AVE at MISSISSAUGA RD,43.568213,-79.695996
-8869193.41220954,5406422.52506568,682,MATHESON BLVD at 110 MATHESON BLVD,43.617393,-79.67332
-8871013.26324503,5399658.91410363,683,EGLINTON AVE at INVERNESS BLVD,43.57339,-79.689668
-8871006.36143659,5399744.65219056,684,EGLINTON AVE at BARBERTOWN RD,43.573948,-79.689606
-8869118.38287274,5406454.66183317,685,MATHESON BLVD east of CANCROSS CT,43.617602,-79.672646
-8868881.60631582,5406686.08061034,686,MATHESON BLVD at HURONTARIO ST,43.619107,-79.670519
-8865466.99225523,5402959.63560334,687,CITY CENTRE DR at ROBERT SPECK PKY,43.594868,-79.639845
-8865416.45320641,5403016.96834398,688,ROBERT SPECK PKY east of CITY CENTRE DR,43.595241,-79.639391
-8869020.31040135,5404215.96499096,689,MCLAUGHLIN RD at BRISTOL RD,43.603041,-79.671765
-8872383.94013516,5404950.35033631,690,SILKEN LAUMANN WAY at BRITANNIA RD W,43.607818,-79.701981
-8866628.61114166,5402426.44276508,691,RATHBURN RD at LIVING ARTS DR,43.591399,-79.65028
-8865450.4056511,5403724.66500441,692,RATHBURN RD at SHERWOODTOWNE BLVD,43.599845,-79.639696
-8869855.31790179,5406093.9368721,693,MATHESON BLVD at EAST KEATON CRES,43.615256,-79.679266
-8881680.11949182,5403123.79571217,694,ARGENTIA RD at 3050 ARGENTIA RD,43.595936,-79.78549
-8869116.93571936,5406943.03143426,695,MILVERTON DR at HURONTARIO ST,43.620778,-79.672633
-8863553.41020849,5420760.1577153,696,GOREWAY DR at NASHUA DR,43.710565,-79.622655
-8869050.92326132,5404107.12657328,697,BRISTOL RD W at MCLAUGHLIN RD,43.602333,-79.67204
-8865555.49125041,5400492.35885858,698,REDMOND RD at CENTRAL PKY,43.578814,-79.64064
-8868714.84971862,5403905.13324341,699,MCLAUGHLIN RD south of BRISTOL RD,43.601019,-79.669021
-8864981.86191435,5404797.84182001,700,CENTRAL PKY at CENTRAL PKY STATION,43.606826,-79.635487
-8868131.20162839,5403322.69772519,701,MCLAUGHLIN RD at EGLINTON AVE,43.59723,-79.663778
-8876365.83832083,5399879.09971505,702,BRITANNIA RD at GLEN ERIN DR,43.574823,-79.737751
-8872092.50570826,5410016.38467954,703,HURONTARIO ST at SKYWAY DR,43.640761,-79.699363
-8869646.0372591,5414676.73374389,704,COLUMBUS RD south of DERRY RD,43.67105,-79.677386
-8868270.68495035,5414147.6352925,705,MID-WAY BLVD at DIXIE RD,43.667612,-79.665031
-8870438.74335304,5400424.59257076,706,EGLINTON AVE W east of CREDITVIEW RD,43.578373,-79.684507
-8870168.90490736,5400829.81470182,707,EGLINTON AVE at EAST MILL RD,43.58101,-79.682083
-8869432.19251729,5407286.25875615,708,HURONTARIO ST at ALDRIDGE ST,43.62301,-79.675465
-8866991.40136215,5404893.31308669,709,HURONTARIO ST at EGLINTON AVE E,43.607447,-79.653539
-8867300.20162961,5405165.43466588,710,HURONTARIO ST at NAHANI WAY,43.609217,-79.656313
-8862581.81369285,5400479.14362517,711,HURONTARIO ST at KING ST E,43.578728,-79.613927
-8869871.79318643,5407840.18563915,712,BRITANNIA RD at HURONTARIO ST,43.626612,-79.679414
-8870974.8580207,5408941.98674766,713,HURONTARIO ST at WORLD DR,43.633776,-79.689323
-8871856.39706829,5409845.02637318,714,HURONTARIO ST at AMBASSADOR DR,43.639647,-79.697242
-8872782.90919017,5410795.84357078,715,HURONTARIO ST at DERRY RD E,43.645828,-79.705565
-8873427.56036135,5411442.90438508,716,HURONTARIO ST at TOPFLIGHT DR,43.650034,-79.711356
-8870531.69512785,5400294.59332634,717,EGLINTON AVE W at CREDITVIEW RD,43.577527,-79.685342
-8872748.51146751,5410694.31174959,718,HURONTARIO ST south of DERRY RD W,43.645168,-79.705256
-8871805.85801947,5409723.81613248,719,HURONTARIO ST at HANSA HAUS DR,43.638859,-79.696788
-8870992.22386126,5408893.84556911,720,HURONTARIO ST at CAPSTON DR,43.633463,-79.689479
-8866555.47423621,5404386.45034122,721,HURONTARIO ST at KINGSBRIDGE GARDEN CIRCLE,43.60415,-79.649623
-8866533.65561601,5404452.55461383,722,HURONTARIO ST at ELIA AVE,43.60458,-79.649427
-8867798.91294837,5405628.98223521,723,HURONTARIO ST at GLEN HAWTHORNE BLVD,43.612232,-79.660793
-8866836.1106725,5404668.39604065,724,HURONTARIO ST at EGLINTON AVE,43.605984,-79.652144
-8868720.41569315,5406842.77209442,725,MATHESON BLVD east of HURONTARIO ST,43.620126,-79.669071
-8868746.13049553,5406873.68014921,726,MATHESON BLVD east of HURONTARIO ST,43.620327,-79.669302
-8869562.99291897,5408167.60555931,727,BRITANNIA RD east of WHITTLE RD,43.628741,-79.67664
-8868433.76800436,5408974.74750136,728,BRITANNIA RD at KENNEDY RD,43.633989,-79.666496
-8868229.71937774,5408792.79605136,729,KENNEDY RD at BRUNEL RD,43.632806,-79.664663
-8869850.53116369,5407788.66688613,730,HURONTARIO ST at BRITANNIA RD E,43.626277,-79.679223
-8868063.85333646,5405972.46829216,731,HURONTARIO ST at BRISTOL RD E,43.614466,-79.663173
-8868139.66190968,5405977.84977774,732,HURONTARIO ST at BRISTOL RD W,43.614501,-79.663854
-8868399.4816012,5403016.96834398,733,EGLINTON AVE at GUILDWOOD WAY,43.595241,-79.666188
-8868734.10799052,5402615.49292112,734,EGLINTON AVE at MAVIS RD,43.592629,-79.669194
-8868741.34375742,5402507.74922858,735,EGLINTON AVE at MAVIS RD,43.591928,-79.669259
-8867781.88106627,5403773.8553167,736,EGLINTON AVE at HERITAGE HILLS BLVD,43.600165,-79.66064
-8867802.80913055,5403669.01877902,737,EGLINTON AVE at HERITAGE HILLS BLVD,43.599483,-79.660828
-8868430.31710015,5402901.22727859,738,EGLINTON AVE at GUILDWOOD WAY,43.594488,-79.666465
-8867357.86512584,5405177.4266485,739,HURONTARIO ST at CEREMONIAL DR,43.609295,-79.656831
-8868786.09419272,5406705.45546842,740,HURONTARIO ST at MATHESON BLVD E,43.619233,-79.669661
-8869034.33665719,5406966.86625323,741,HURONTARIO ST at WATLINE AVE,43.620933,-79.671891
-8868098.80765657,5403362.35567045,742,EGLINTON AVE at MCLAUGHLIN RD,43.597488,-79.663487
-8870486.61073408,5400443.33965741,743,EGLINTON AVE at CREDITVIEW RD,43.578495,-79.684937
-8869601.84342125,5401462.80810756,744,EGLINTON AVE east of WILLOW CREEK DR,43.585129,-79.676989
-8868117.95460898,5403285.19191793,745,EGLINTON AVE at CONFEDERATION PKY,43.596986,-79.663659
-8869763.3680024,5407627.96097889,746,HURONTARIO ST south of BRITANNIA RD,43.625232,-79.67844
-8869138.86565905,5406992.08509634,747,HURONTARIO ST at MILVERTON DR,43.621097,-79.67283
-8866633.62051874,5404158.00991138,748,KINGSBRIDGE GARDEN CIRCLE at TUCANA CRT,43.602664,-79.650325
-8867477.75621743,5404076.22776441,749,EGLINTON AVE W at KINGSBRIDGE GARDEN CIRCLE,43.602132,-79.657908
-8867145.02225945,5403667.94275033,750,KINGSBRIDGE GARDEN CIRCLE at HUNTINGTON RIDGE DR,43.599476,-79.654919
-8868905.31736736,5406751.58624631,751,HURONTARIO ST at MATHESON BLVD W,43.619533,-79.670732
-8866714.32714957,5403861.62993011,752,KINGSBRIDGE GARDEN CIRCLE at JENKINS CR,43.600736,-79.65105
-8866593.21154358,5404187.6791773,753,KINGSBRIDGE GARDEN CIRCLE at TUCANA CRT,43.602857,-79.649962
-8866170.42011755,5405756.13516544,754,EGLINTON AVE at DELAWARE DR,43.613059,-79.646164
-8866821.97309716,5404878.09296365,755,EGLINTON AVE E east of HURONTARIO ST,43.607348,-79.652017
-8866182.77658103,5405678.79768516,756,EGLINTON AVE E at HURON HEIGHTS DR,43.612556,-79.646275
-8869291.59600042,5401897.89132651,757,EGLINTON AVE at TERRY FOX WAY,43.58796,-79.674202
-8869333.22948997,5401797.53297895,758,EGLINTON AVE at WAINSCOT DR,43.587307,-79.674576
-8864709.01784242,5410582.93570148,759,DIXIE RD at AEROWOOD DR,43.644444,-79.633036
-8864320.62413904,5410199.74466259,760,DIXIE RD at MATHESON BLVD,43.641953,-79.629547
-8864597.80967112,5408027.19343585,761,TOMKEN RD at NUVIK CRT,43.627828,-79.632037
-8863829.14858719,5409701.20475336,762,DIXIE RD at AIMCO BLVD,43.638712,-79.625132
-8863412.36841366,5409282.98112325,763,DIXIE RD at EGLINTON AVE,43.635993,-79.621388
-8863117.92836051,5408983.05306301,764,DIXIE RD at CRESTLAWN DR,43.634043,-79.618743
-8864040.6556197,5408339.24036182,765,EGLINTON AVE at MAINGATE DR,43.629857,-79.627032
-8863255.96452909,5409314.97402413,766,EGLINTON AVE at DIXIE RD,43.636201,-79.619983
-8863017.74081879,5409611.52887615,767,EGLINTON AVE at MATHESON BLVD E,43.638129,-79.617843
-8862652.94684747,5410055.60987339,768,EGLINTON AVE at EASTGATE PKY,43.641016,-79.614566
-8864353.35206933,5407869.55914624,769,TOMKEN RD at EGLINTON AVE,43.626803,-79.629841
-8866203.48200632,5409416.33687884,770,TOMKEN RD at KAMATO RD,43.63686,-79.646461
-8865699.87262997,5408901.22822558,771,TOMKEN RD at MATHESON BLVD,43.633511,-79.641937
-8864363.3708235,5407846.18336337,772,TOMKEN RD at EGLINTON AVE,43.626651,-79.629931
-8865691.85762663,5406346.41211455,773,EGLINTON AVE at KENNEDY RD,43.616898,-79.641865
-8860095.270227,5413326.65391693,774,EGLINTON AVE at COMMERCE BLVD,43.662277,-79.59159
-8863006.72018921,5409694.43673227,775,EGLINTON AVE at MATHESON BLVD,43.638668,-79.617744
-8863981.76760907,5408482.27179834,776,EGLINTON AVE at MAINGATE DR,43.630787,-79.626503
-8864322.2939314,5410263.42926627,777,DIXIE RD at MATHESON BLVD,43.642367,-79.629562
-8863708.58957866,5409646.59926998,778,DIXIE RD at AIMCO BLVD,43.638357,-79.624049
-8863264.64744938,5409204.38364949,779,DIXIE RD at EGLINTON AVE,43.635482,-79.620061
-8862982.34122072,5408919.83869827,780,DIXIE RD at CRESTLAWN DR,43.633632,-79.617525
-8864429.939879,5407830.6508035,781,EGLINTON AVE E at TOMKEN RD,43.62655,-79.630529
-8860673.2410232,5413204.16698061,782,EXPLORER DR south of MATHESON BLVD E,43.661481,-79.596782
-8864498.73532431,5410190.20739257,783,MATHESON BLVD at DIXIE RD,43.641891,-79.631147
-8864549.6083316,5407770.36626387,784,EGLINTON AVE east of HWY 403,43.626158,-79.631604
-8865612.04155174,5408866.4682695,785,TOMKEN RD at MATHESON BLVD,43.633285,-79.641148
-8878505.39893388,5403866.39530074,786,DERRY RD at ARGENTIA RD,43.600767,-79.756971
-8878290.32967767,5404505.43837213,787,SYNTEX DR at DERRY RD,43.604924,-79.755039
-8878622.61835769,5404700.06550571,788,SYNTEX DR at MEADOWVALE BLVD,43.60619,-79.758024
-8871851.83296917,5401751.73427861,789,BRISTOL RD W at CREDITVIEW RD,43.587009,-79.697201
-8871083.17188524,5402318.08649071,790,BRISTOL RD W at SEGRIFF DR,43.590694,-79.690296
-8864039.31978581,5421900.46639113,791,REXWOOD RD west of NETHERBRAE RD,43.717969,-79.62702
-8875954.06752439,5400484.21458459,792,ERIN MILLS PKY at BRITANNIA RD,43.578761,-79.734052
-8878707.1098512,5401154.06665635,793,MEADOWVALE TOWN CENTRE BUS TERMINAL PLATFORM E,43.58312,-79.758783
-8872570.28896275,5397402.81284126,794,CREDIT VALLEY HOSPITAL,43.558705,-79.703655
-8878467.21634854,5404017.9661121,795,DERRY RD at ARGENTIA RD,43.601753,-79.756628
-8878974.72190707,5403373.73046131,796,DERRY RD at MILLCREEK DR,43.597562,-79.761187
-8860931.72488082,5413509.15630943,797,EXPLORER DR north of MATHESON BLVD,43.663463,-79.599104
-8865096.1870314,5402312.39974258,798,KARIYA DR at NORTH ENFIELD PLACE,43.590657,-79.636514
-8861433.7757843,5412640.68644224,799,MATHESON BLVD at ORBITOR DR,43.657819,-79.603614
-8860913.69112331,5413353.73667484,800,MATHESON BLVD at EXPLORER DR,43.662453,-79.598942
-8860555.13104347,5413167.54431755,801,SKYMARK AVE at EXPLORER DR,43.661243,-79.595721
-8870022.29713798,5400949.21800965,802,EGLINTON AVE east of WHITE CLOVER WAY,43.581787,-79.680766
-8867481.54108011,5410776.46013694,803,TOMKEN RD at BRITANNIA RD,43.645702,-79.657942
-8866544.23096763,5409762.5786254,804,TOMKEN RD at TIMBERLEA BLVD,43.639111,-79.649522
-8878344.98754765,5404535.26248547,805,SYNTEX DR at DERRY RD,43.605118,-79.75553
-8878572.85854531,5404700.68044786,806,SYNTEX DR at MEADOWVALE BLVD,43.606194,-79.757577
-8878592.3394562,5405066.42453179,807,MEADOWVALE BLVD at WEST CREDIT AVE,43.608573,-79.757752
-8870488.94844338,5405722.00204271,808,MCLAUGHLIN RD at MATHESON BLVD,43.612837,-79.684958
-8873862.59693136,5397530.31360549,809,ERIN CENTRE BLVD at JOHN FRASER SECONDARY SCHOOL,43.559535,-79.715264
-8871903.26257392,5401726.22234923,810,CREDITVIEW RD at BRISTOL RD,43.586843,-79.697663
-8868354.39720743,5418155.56439801,811,DREW RD at DAVID HUNTING DR,43.69365,-79.665783
-8872291.99023577,5404833.97012224,812,BRITANNIA RD at TERRY FOX WAY,43.607061,-79.701155
-8873346.40845256,5411787.06812249,813,HURONTARIO/407 PARK and RIDE PLATFORM A,43.652271,-79.710627
-8876594.26591594,5400090.07102554,814,GLEN ERIN DR at WINDWOOD DR,43.576196,-79.739803
-8876539.49672648,5400061.49050806,815,GLEN ERIN DR at WINDWOOD DR,43.57601,-79.739311
-8878129.80697195,5401036.1974511,816,GLEN ERIN DR south of BATTLEFORD RD,43.582353,-79.753597
-8870711.92138344,5402774.42100099,817,BRISTOL RD at SWEETGRASS GATE,43.593663,-79.686961
-8878419.23764801,5402907.37550592,818,AQUITAINE AVE at MILLCREEK DR,43.594528,-79.756197
-8874041.93263104,5395992.43360495,819,EGLINTON AVE at WINSTON CHURCHILL BLVD,43.549523,-79.716875
-8874447.58085549,5396230.96337184,820,WINSTON CHURCHILL BLVD at DESTINATION DR,43.551076,-79.720519
-8861744.57980259,5417222.30871802,821,CAMPUS RD at BRESLER DR,43.687588,-79.606406
-8867499.01824017,5405323.6378412,822,HURONTARIO ST at STRATHHAVEN DR,43.610246,-79.658099
-8863128.50371214,5417857.96536679,823,AMERICAN DR at VISCOUNT RD,43.691717,-79.618838
-8861468.50746542,5403319.31604781,824,CAWTHRA RD at SILVER CREEK BLVD,43.597208,-79.603926
-8878640.98607367,5401705.32106193,825,AQUITAINE AVE east of GLEN ERIN DR,43.586707,-79.758189
-8878391.85305328,5402230.17282915,826,AQUITAINE AVE at MONTEVIDEO RD,43.590122,-79.755951
-8878731.2661807,5401201.55284919,827,MEADOWVALE TOWN CENTRE BUS TERMINAL PLATFORM C,43.583429,-79.759
-8872461.08454228,5402296.87647491,828,CREDITVIEW RD at WILLOW WAY,43.590556,-79.702674
-8863149.65441539,5417819.93865974,829,VISCOUNT RD at AMERICAN DR,43.69147,-79.619028
-8876712.0419372,5399957.61797292,830,WINDWOOD DR at BUCKLEPOST CRES,43.575334,-79.740861
-8876589.36785835,5400048.42954828,831,WINDWOOD DR at GLEN ERIN DR,43.575925,-79.739759
-8878734.9397239,5401229.21482145,832,MEADOWVALE TOWN CENTRE BUS TERMINAL PLATFORM B,43.583609,-79.759033
-8876538.94012902,5400102.97838496,833,WINDWOOD DR at GLEN ERIN DR,43.57628,-79.739306
-8878111.43925597,5401062.16850293,834,GLEN ERIN DR at BATTLEFORD RD,43.582522,-79.753432
-8873249.78313455,5403109.19333725,835,CREDITVIEW RD south of BRITANNIA RD,43.595841,-79.709759
-8872972.93156095,5402818.38031369,836,CREDITVIEW RD at HIGHBROOK AVE,43.593949,-79.707272
-8878712.11922828,5401273.62782766,837,MEADOWVALE TOWN CENTRE BUS TERMINAL PLATFORM J,43.583898,-79.758828
-8862186.40686155,5403851.79175335,838,BLOOR ST at CAWTHRA RD,43.600672,-79.610375
-8870183.71039964,5400734.07802757,839,EGLINTON AVE at WHITE CLOVER WAY,43.580387,-79.682216
-8869855.09526281,5401148.68797674,840,EGLINTON AVE at WILLOW CREEK DR,43.583085,-79.679264
-8879043.51735238,5401337.71202211,841,AQUITAINE AVE at FORMENTERA AVE,43.584315,-79.761805
-8867099.15862924,5404543.41032697,842,EGLINTON AVE east of KINGSBRIDGE GARDEN CIRCLE,43.605171,-79.654507
-8878452.29953678,5401963.97781606,843,AQUITAINE AVE at 2700 AQUITAINE AVE,43.58839,-79.756494
-8876208.76651933,5404329.87775756,844,ARGENTIA RD at KITIMAT RD,43.603782,-79.73634
-8876484.39357853,5403979.68886748,845,ARGENTIA RD at MISSISSAUGA RD,43.601504,-79.738816
-8876800.4296129,5403785.23061366,846,ARGENTIA RD at CENTURY AVE,43.600239,-79.741655
-8876740.31708787,5403381.56985236,847,TURNER VALLEY RD at TORQUAY MEWS,43.597613,-79.741115
-8876843.62157532,5402295.33951914,848,MILLCREEK DR at SURVEYOR RD,43.590546,-79.742043
-8877874.32874057,5402994.52706805,849,MILLCREEK DR at 6715 MILLCREEK DR,43.595095,-79.751302
-8877212.97964577,5402494.6848148,850,MILLCREEK DR south of MILLRACE CRT,43.591843,-79.745361
-8876614.19210479,5403421.22805003,851,TURNER VALLEY RD west of MISSISSAUGA RD,43.597871,-79.739982
-8876853.41769051,5403654.56926142,852,ARGENTIA RD at CENTURY AVE,43.599389,-79.742131
-8876518.34602322,5403922.0427137,853,ARGENTIA RD at MISSISSAUGA RD,43.601129,-79.739121
-8876243.05292249,5404254.24321349,854,ARGENTIA RD at KITIMAT RD,43.60329,-79.736648
-8866575.73438353,5420673.4544316,855,MORNING STAR DR at COLLET RD,43.710002,-79.649805
-8866315.91469202,5421101.89670622,856,MORNING STAR DR at LANCASTER AVE,43.712784,-79.647471
-8878006.68761513,5402993.75853216,857,MILLCREEK DR south of AQUITAINE AVE,43.59509,-79.752491
-8870289.57523538,5400090.22468448,858,CREDITVIEW RD at SOUTH PARADE CRT,43.576197,-79.683167
-8876710.70610332,5402273.36107946,859,ERIN MILLS PKY at MILLCREEK DR,43.590403,-79.740849
-8880367.99665384,5401571.92278196,860,DERRY RD at DANTON PROMENADE,43.585839,-79.773703
-8863960.28294734,5390369.7952968,861,INVERHOUSE DR south of LAKESHORE RD,43.512904,-79.62631
-8866222.40631975,5421417.92798048,862,MORNING STAR DR at REINDEER DR,43.714836,-79.646631
-8866602.6737003,5420549.17601195,863,AIRPORT RD at MORNING STAR DR,43.709195,-79.650047
-8866068.22882501,5420024.66867424,864,AIRPORT RD at RIPON ST,43.705789,-79.645246
-8877639.444615,5402838.8230023,865,MILLCREEK DR north of MILLRACE CRT,43.594082,-79.749192
-8876914.42077146,5403454.73782248,866,ARGENTIA RD at TURNER VALLEY RD,43.598089,-79.742679
-8878008.80268546,5403773.08671606,867,ARGENTIA RD at CENTURY AVE,43.60016,-79.75251
-8878429.70168014,5403942.79528767,868,ARGENTIA RD at DERRY RD,43.601264,-79.756291
-8878345.5441451,5403857.01828345,869,ARGENTIA RD at DERRY RD,43.600706,-79.755535
-8878062.90395798,5403755.87007843,870,ARGENTIA RD at CENTURY AVE,43.600048,-79.752996
-8876891.71159534,5403404.62692333,871,ARGENTIA RD at TURNER VALLEY RD,43.597763,-79.742475
-8879424.34133038,5402629.01860884,872,GLEN ERIN DR at DERRY RD,43.592717,-79.765226
-8879007.78379583,5403280.11942287,873,DERRY RD at MILLCREEK DR,43.596953,-79.761484
-8874061.19090294,5409303.28429751,874,DERRY RD at MCLAUGHLIN RD,43.636125,-79.717048
-8873046.62506385,5400289.9834576,875,QUEEN ST at BEECH ST,43.577497,-79.707934
-8871641.43913157,5405594.84958184,876,MAVIS RD at BRITANNIA RD,43.61201,-79.695311
-8875653.50489925,5404656.40471811,877,ARGENTIA RD west of CAMPOBELLO RD,43.605906,-79.731352
-8873421.43778935,5397890.09029259,878,ERIN MILLS PKY at ERIN CENTRE BLVD,43.561877,-79.711301
-8875473.9465606,5404668.85724567,879,KINSMEN GATE at FALCONER DR,43.605987,-79.729739
-8874130.32030672,5401363.83760045,880,QUEEN ST S at CAROLINE ST,43.584485,-79.717669
-8873333.38407213,5400551.82764248,881,QUEEN ST at BARRY AVE,43.579201,-79.71051
-8873998.18407116,5401259.48940809,882,QUEEN ST S north of KERR ST,43.583806,-79.716482
-8877013.1611598,5399006.2243879,883,BRITANNIA RD at WINSTON CHURCHILL BLVD,43.569142,-79.743566
-8876386.65506562,5399779.6851859,884,BRITANNIA RD at GLEN ERIN DR,43.574176,-79.737938
-8875900.41152983,5400383.87157079,885,BRITANNIA RD at ERIN MILLS PKY,43.578108,-79.73357
-8875103.58661473,5401373.36577092,886,BRITANNIA RD at JOYMAR DR,43.584547,-79.726412
-8874625.91467974,5401864.23350514,887,QUEEN ST S south of BRITANNIA RD,43.587741,-79.722121
-8875104.14321219,5401427.3076952,888,BRITANNIA RD at MILLCREEK DR,43.584898,-79.726417
-8877061.69645779,5398984.86832236,889,BRITANNIA RD at WINSTON CHURCHILL BLVD,43.569003,-79.744002
-8868812.25427306,5412148.63078239,890,TOMKEN RD at COURTNEYPARK DR,43.654621,-79.669896
-8872547.9137451,5411167.6749302,891,DERRY RD at EDWARDS BLVD,43.648245,-79.703454
-8869664.73893356,5412976.89338724,892,TOMKEN RD at MID-WAY BLVD,43.660004,-79.677554
-8869242.1701465,5412550.36656983,893,TOMKEN RD at PACIFIC CIRCLE,43.657232,-79.673758
-8868837.63511696,5412119.8591079,894,TOMKEN RD at COURTNEYPARK DR,43.654434,-79.670124
-8868591.7303618,5411872.14946696,895,TOMKEN RD at TRISTAR DR,43.652824,-79.667915
-8868298.40350355,5411569.5219182,896,TOMKEN RD at MEYERSIDE DR,43.650857,-79.66528
-8870534.25547614,5413863.70751944,897,TOMKEN RD at DERRY RD,43.665767,-79.685365
-8873455.50155354,5403357.28313307,898,CREDITVIEW RD at BRITANNIA RD,43.597455,-79.711607
-8872861.83470914,5410776.30630033,899,DERRY RD at HURONTARIO ST,43.645701,-79.706274
-8871669.49164325,5412263.41065352,900,DERRY RD at KENNEDY RD,43.655367,-79.695563
-8871616.16960716,5412408.04147591,901,DERRY RD at KENNEDY RD,43.656307,-79.695084
-8867022.2368611,5413011.36106069,902,DIXIE RD at MEYERSIDE DR,43.660228,-79.653816
-8867453.48856843,5413456.68265528,903,DIXIE RD at COURTNEYPARK DR,43.663122,-79.65769
-8876631.78058434,5405274.9005201,904,FINANCIAL DR at 6768 FINANCIAL DR,43.609929,-79.74014
-8869430.52272492,5415202.63038715,905,DERRY RD west of DIXIE RD,43.674467,-79.67545
-8870816.4503853,5414443.11411169,906,CARDIFF BLVD at LORIMAR DR,43.669532,-79.6879
-8870382.86096866,5413922.18515476,907,DERRY RD at TOMKEN RD,43.666147,-79.684005
-8869757.46806939,5414697.97218527,908,DERRY RD at COLUMBUS RD,43.671188,-79.678387
-8872893.33812503,5410847.68676425,909,HURONTARIO ST at DERRY RD W,43.646165,-79.706557
-8865128.02440576,5402524.96354316,910,BURNHAMTHORPE RD at SUSSEX GATE,43.59204,-79.6368
-8867598.76050392,5413524.08288721,911,DIXIE RD at COURTNEYPARK DR,43.66356,-79.658995
-8867145.13357894,5413063.67831076,912,DIXIE RD at MEYERSIDE DR,43.660568,-79.65492
-8864195.05575342,5401982.42064158,913,HURONTARIO ST south of CENTRAL PKY W,43.58851,-79.628419
-8880939.84487804,5400938.3072187,914,DERRY RD at TERRAGAR BLVD,43.581716,-79.77884
-8868681.00859341,5416130.14063784,915,DERRY RD at TELFORD WAY,43.680493,-79.668717
-8869705.37054769,5414852.337107,916,DERRY RD at CARDIFF BLVD,43.672191,-79.677919
-8870435.06980984,5413939.72851754,917,DERRY RD at TOMKEN RD,43.666261,-79.684474
-8868717.63270589,5415999.15071725,918,DERRY RD at MENKES DR,43.679642,-79.669046
-8868117.50933102,5416736.47423959,919,DERRY RD at BRAMALEA RD,43.684432,-79.663655
-8872912.70771643,5410785.53650169,920,DERRY RD at HURONTARIO ST,43.645761,-79.706731
-8874026.79318029,5409432.94880323,921,DERRY RD at MCLAUGHLIN RD,43.636968,-79.716739
-8874090.24529004,5397244.74505515,922,GLEN ERIN DR at ERIN CENTRE BLVD,43.557676,-79.717309
-8879438.47890571,5402604.27276336,923,GLEN ERIN DR at DERRY RD,43.592556,-79.765353
-8881124.30127429,5402939.19264773,924,WINSTON CHURCHILL BLVD at BAYBERRY DR,43.594735,-79.780497
-8865470.22052046,5403019.12025001,925,ROBERT SPECK PKY at CITY CENTRE DR,43.595255,-79.639874
-8879242.33396293,5401138.6990086,926,AQUITAINE AVE at WINSTON CHURCHILL BLVD,43.58302,-79.763591
-8870556.07409633,5414759.071452,927,CARDIFF BLVD east of TOMKEN RD,43.671585,-79.685561
-8866799.15260155,5414393.71308858,928,COURTNEYPARK DR at 1801 COURTNEYPARK DR,43.669211,-79.651812
-8870122.70731867,5394772.08061617,929,THE COLLEGEWAY at SOUTH MILLWAY,43.541577,-79.681668
-8870321.9692072,5403886.53286179,930,MAVIS RD south of  PRESTON MANOR DR,43.600898,-79.683458
-8866002.9956034,5411895.2277244,931,DIXIE RD at SHAWSON DR,43.652974,-79.64466
-8866269.27182538,5412162.78586368,932,DIXIE RD at BRITANNIA RD,43.654713,-79.647052
-8865818.42788767,5419583.80373378,933,DERRY RD at AIRPORT RD,43.702926,-79.643002
-8867494.00886308,5405376.21908768,934,HURONTARIO ST at STRATHAVEN DR,43.610588,-79.658054
-8863312.96010838,5409307.59103718,935,EGLINTON AVE at DIXIE RD,43.636153,-79.620495
-8869380.0949956,5415426.57263967,936,DIXIE RD at DERRY RD,43.675922,-79.674997
-8870160.11066758,5416225.42119501,937,DIXIE RD at DREW RD,43.681112,-79.682004
-8876321.31052452,5399813.33542471,938,GLEN ERIN DR at BRITANNIA RD,43.574395,-79.737351
-8866197.35943432,5412182.47992589,939,DIXIE RD at BRITANNIA RD,43.654841,-79.646406
-8865803.5110759,5411756.4513385,940,DIXIE RD at SHAWSON DR,43.652072,-79.642868
-8876240.26993522,5399707.00723378,941,GLEN ERIN DR south of BRITANNIA RD,43.573703,-79.736623
-8877372.16651761,5401446.82522106,942,BATTLEFORD RD at MONTEVIDEO RD,43.585025,-79.746791
-8867555.90249996,5413422.05943966,943,COURTNEYPARK DR at DIXIE RD,43.662897,-79.65861
-8876950.15432801,5401539.95665955,944,BATTLEFORD RD at ERIN MILLS PKY,43.585631,-79.743
-8867715.0893718,5405609.6096327,945,HURONTARIO ST at TRAILWOOD DR,43.612106,-79.66004
-8867551.56103982,5410802.61239852,946,TOMKEN RD at BRITANNIA RD,43.645872,-79.658571
-8867912.68146796,5411174.13634384,947,TOMKEN RD at VERBENA RD,43.648287,-79.661815
-8864820.22601372,5421472.44909011,948,GOREWAY DR at DORCAS ST,43.71519,-79.634035
-8865509.85025919,5422462.3558682,949,WESTWOOD SQUARE BUS TERMINAL PLATFORM H,43.721617,-79.64023
-8869806.7826038,5406977.93793198,950,AVEBURY RD north of ALDRIDGE ST,43.621005,-79.67883
-8865829.00323929,5422237.93483285,951,MORNING STAR DR at CATALPA RD,43.72016,-79.643097
-8866934.96238032,5422213.13641225,952,NETHERWOOD RD at REDSTONE RD,43.719999,-79.653032
-8863652.37323581,5407172.15578629,953,TOMKEN RD at TOMKEN STATION,43.622268,-79.623544
-8866964.2394064,5422199.73605121,954,NETHERWOOD RD at REDSTONE RD,43.719912,-79.653295
-8862641.92621787,5410144.98240745,955,EGLINTON AVE at CREEKBANK RD,43.641597,-79.614467
-8865862.06512805,5419615.06241258,956,DERRY RD at AIRPORT RD,43.703129,-79.643394
-8865433.4850885,5422085.91078057,957,GOREWAY DR at JOLLIFFE AVE,43.719173,-79.639544
-8865124.68482104,5421784.02646966,958,GOREWAY DR at ETUDE DR,43.717213,-79.63677
-8864655.02788939,5421353.24233596,959,GOREWAY DR north of DERRY RD,43.714416,-79.632551
-8865229.54778137,5422976.98915848,960,DARCEL AVE at MORNING STAR DR,43.724958,-79.637712
-8865604.91710432,5422458.81314645,961,WESTWOOD SQUARE BUS TERMINAL PLATFORM B,43.721594,-79.641084
-8872777.12057664,5404233.95112398,962,BRITANNIA RD at BROOKHAVEN WAY,43.603158,-79.705513
-8865539.46124374,5422490.38962737,963,WESTWOOD SQUARE BUS TERMINAL PLATFORM E,43.721799,-79.640496
-8865592.33800187,5422480.53159247,964,WESTWOOD SQUARE BUS TERMINAL PLATFORM A,43.721735,-79.640971
-8865574.86084181,5422439.5592477,965,WESTWOOD SQUARE BUS TERMINAL PLATFORM C,43.721469,-79.640814
-8865549.36867842,5422469.74937883,966,WESTWOOD SQUARE BUS TERMINAL PLATFORM F,43.721665,-79.640585
-8856124.94926837,5421344.00156661,967,REXDALE BLVD at ISLINGTON AVE,43.714356,-79.555924
-8864893.69687765,5424034.84247651,968,DARCEL AVE at BRANDON GATE DR,43.731825,-79.634695
-8865574.41556385,5422433.70607043,969,WESTWOOD SQUARE BUS TERMINAL PLATFORM G,43.721431,-79.64081
-8872769.1055733,5404305.74227691,970,BRITANNIA RD W at DOUGUY BLVD,43.603625,-79.705441
-8873227.51923639,5403739.88322932,971,BRITANNIA RD at BIDWELL TR,43.599944,-79.709559
-8868448.68481613,5394129.1025366,972,ERIN MILLS PKY at DUNDAS ST W,43.53739,-79.66663
-8867432.78314315,5413622.10647658,973,COURTNEYPARK DR east of DIXIE RD,43.664197,-79.657504
-8864011.6012326,5421492.31703216,974,REXWOOD RD south of DERRY RD,43.715319,-79.626771
-8861398.15354724,5416984.31436336,975,AIRPORT RD at 427 HWY,43.686042,-79.603294
-8860328.5958797,5414877.7313841,976,RENFORTH DR at CONVAIR DR,43.672356,-79.593686
-8868070.97778387,5403300.71684429,977,CONFEDERATION PKY at EGLINTON AVE,43.597087,-79.663237
-8861702.50103508,5416957.68277642,978,AIRPORT RD at JETLINER RD,43.685869,-79.606028
-8872276.96210451,5404908.53323479,979,BRITANNIA RD at SILKEN LAUMANN WAY,43.607546,-79.70102
-8863484.3921242,5417530.81764467,980,AIRPORT RD at AMERICAN DR,43.689592,-79.622035
-8863835.60511766,5417757.12565667,981,AIRPORT RD north of AMERICAN DR,43.691062,-79.62519
-8864397.76854616,5418347.24603856,982,AIRPORT RD at ORLANDO DR,43.694895,-79.63024
-8864985.98073551,5418951.72360372,983,AIRPORT RD at NORTHWEST DR,43.698821,-79.635524
-8867574.15889645,5402880.47704148,984,CONFEDERATION PKY at HUNTINGTON RIDGE DR,43.594353,-79.658774
-8865515.63887271,5419426.28008136,985,AIRPORT RD south of DERRY RD,43.701903,-79.640282
-8865093.18140515,5418986.82947709,986,AIRPORT RD at NORTHWEST DR,43.699049,-79.636487
-8864488.60525065,5418365.41366156,987,AIRPORT RD at SILVER DART DR,43.695013,-79.631056
-8863459.12259979,5417468.00660838,988,AIRPORT RD at AMERICAN DR,43.689184,-79.621808
-8865475.11857806,5419450.60907211,989,AIRPORT RD south of DERRY RD,43.702061,-79.639918
-8862044.47451079,5416977.38706457,990,AIRPORT RD south of 409 HWY,43.685997,-79.6091
-8863907.6288282,5422011.97901585,991,REXWOOD RD west of NETHERBRAE RD,43.718693,-79.625837
-8856827.59789426,5409240.22155365,992,BLOOR ST at THE WEST MALL,43.635715,-79.562236
-8864018.50304103,5421572.86734395,993,REXWOOD RD at DERRY RD,43.715842,-79.626833
-8862659.73733641,5418440.24001107,994,AMERICAN DR at NORTHAM DR,43.695499,-79.614627
-8873538.87985214,5407429.88902487,995,MAVIS RD at SOMBRERO WAY,43.623944,-79.712356
-8862420.62307018,5419028.24842041,996,NORTHWEST DR at AMERICAN DR,43.699318,-79.612479
-8864439.51335521,5421349.70003995,997,DERRY RD east of GOREWAY DR,43.714393,-79.630615
-8864393.31576653,5421472.29507522,998,DERRY RD west of REXWOOD RD,43.715189,-79.6302
-8863986.88830564,5421644.48532437,999,DERRY RD at REXWOOD RD,43.716307,-79.626549
-8870527.68762618,5403002.67355233,1000,BRISTOL RD W at TERRY FOX WAY,43.595148,-79.685306
-8865597.57001793,5422258.57456292,1001,GOREWAY DR south of MORNING STAR DR,43.720294,-79.641018
-8868954.4092628,5404194.1357141,1002,MCLAUGHLIN RD at BRISTOL RD,43.602899,-79.671173
-8865422.90973688,5402877.249231,1003,CITY CENTRE DR south of ROBERT SPECK PKY,43.594332,-79.639449
-8872246.57188352,5402081.8588428,1004,CREDITVIEW RD south of WILLOW WAY,43.589157,-79.700747
-8870432.28682257,5407473.87047421,1005,CANTAY RD at STANDISH CRT,43.62423,-79.684449
-8872491.25212428,5406384.85292064,1006,MAVIS RD at BANCROFT DR,43.617148,-79.702945
-8865996.09379497,5401465.42069741,1007,CONFEDERATION PKY at BURNHAMTHORPE RD,43.585146,-79.644598
-8873508.37831166,5403328.99994544,1008,BRITANNIA RD at CREDITVIEW RD,43.597271,-79.712082
-8871081.2794539,5406301.66721754,1009,BRITANNIA RD at MCLAUGHLIN RD,43.616607,-79.690279
-8869937.69432498,5407690.24379799,1010,BRITANNIA RD west of HURONTARIO ST,43.625637,-79.680006
-8870234.9173654,5407391.751434,1011,BRITANNIA RD at CANTAY RD,43.623696,-79.682676
-8871060.6853481,5406380.39377895,1012,BRITANNIA RD at MCLAUGHLIN RD,43.617119,-79.690094
-8873587.63778911,5403287.34388635,1013,BRITANNIA RD at CREDITVIEW RD,43.597,-79.712794
-8867036.04047796,5404691.91752618,1014,EGLINTON AVE west of HURONTARIO ST,43.606137,-79.65394
-8877127.04099888,5398948.45557607,1015,WINSTON CHURCHILL BLVD at BRITANNIA RD,43.568766,-79.744589
-8862498.21275526,5412721.00570764,1016,EXPLORER DR at SATELLITE DR,43.658341,-79.613176
-8877596.36397206,5405433.41306368,1017,FINANCIAL DR south of DERRY RD,43.61096,-79.748805
-8877122.69953874,5405195.10716407,1018,FINANCIAL DR at 6897 FINANCIAL DR,43.60941,-79.74455
-8877590.01876109,5405485.99493439,1019,FINANCIAL DR at DERRY RD,43.611302,-79.748748
-8871279.76210598,5406577.67441549,1020,MCLAUGHLIN RD north of BRITANNIA RD,43.618402,-79.692062
-8862624.89433579,5408531.48742808,1021,DIXIE RD at DIXIE STATION,43.631107,-79.614314
-8871682.96130164,5406991.0086809,1022,MCLAUGHLIN RD at CANTAY RD,43.62109,-79.695684
-8869555.42319359,5408037.34363831,1023,WHITTLE RD at BRITANNIA RD,43.627894,-79.676572
-8872451.06578811,5410384.80041456,1024,HURONTARIO ST at LONGSIDE DR,43.643156,-79.702584
-8876921.09994091,5407491.70916365,1025,DERRY RD at GODWICK DR,43.624346,-79.742739
-8875142.88239498,5408825.71008043,1026,DERRY RD at JOHN WATT BLVD,43.63302,-79.726765
-8874598.19612653,5408712.04951389,1027,MAVIS RD at DERRY RD,43.632281,-79.721872
-8862621.1094731,5408482.11799991,1028,DIXIE RD at DIXIE STATION,43.630786,-79.61428
-8871757.43404098,5401794.61292082,1029,BRISTOL RD W east of CREDITVIEW RD,43.587288,-79.696353
-8862205.33117499,5410668.31362931,1030,EGLINTON AVE at TAHOE BLVD,43.644999,-79.610545
-8866753.17765186,5402229.2506623,1031,RATHBURN RD at CONFEDERATION PKY,43.590116,-79.651399
-8861370.65763302,5411708.757053,1032,EGLINTON AVE E at SATELLITE DR,43.651762,-79.603047
-8877591.68855345,5397472.55400554,1033,MCDOWELL DR at DELLE DONNE DR,43.559159,-79.748763
-8862692.91054466,5410120.67791504,1034,CREEKBANK RD at EGLINTON AVE,43.641439,-79.614925
-8873878.51561855,5397569.33226265,1035,ERIN CENTRE BLVD at JOHN FRASER SECONDARY SCHOOL,43.559789,-79.715407
-8873983.48989837,5397104.80585685,1036,GLEN ERIN DR south of ERIN CENTRE BLVD,43.556765,-79.71635
-8862925.23432195,5412362.34404587,1037,EXPLORER DR at 5800 EXPLORER DR,43.65601,-79.617012
-8862921.22682028,5412434.35221997,1038,EXPLORER DR west of SATELLITE DR,43.656478,-79.616976
-8872594.11133378,5397376.69844362,1039,CREDIT VALLEY HOSPITAL,43.558535,-79.703869
-8860249.55904124,5413505.00149311,1040,SKYMARK AVE at COMMERCE BLVD,43.663436,-79.592976
-8860358.76346171,5413415.75033434,1041,SKYMARK AVE west of COMMERCE BLVD,43.662856,-79.593957
-8875589.71883103,5400763.12163306,1042,BRITANNIA RD at HOGAN DR,43.580576,-79.730779
-8864612.39252441,5421258.98692268,1043,GOREWAY DR at DERRY RD,43.713804,-79.632168
-8865253.03619392,5403145.77617263,1044,HURONTARIO ST at ROBERT SPECK PKY,43.596079,-79.637923
-8863906.62695278,5403915.43264436,1045,CENTRAL PKY at BURNHAMTHORPE RD,43.601086,-79.625828
-8866192.12741826,5401618.02796074,1046,CONFEDERATION PKY at CITY CENTRE DR,43.586139,-79.646359
-8866653.54670759,5402074.0205532,1047,CONFEDERATION PKY at SQUARE ONE DR,43.589106,-79.650504
-8873192.45359679,5397099.42953029,1048,EGLINTON AVE at METCALFE AVE,43.55673,-79.709244
-8873528.30450051,5396678.70325885,1049,GLEN ERIN DR at EGLINTON AVE,43.553991,-79.712261
-8873050.966524,5396448.60986751,1050,GLEN ERIN DR at CREDIT VALLEY RD,43.552493,-79.707973
-8876740.09444889,5398556.68192653,1051,WINSTON CHURCHILL BLVD at MCDOWELL DR,43.566216,-79.741113
-8870310.94857761,5403277.35260857,1052,BRISTOL RD W at HEATHERLEIGH AVE,43.596935,-79.683359
-8869785.63190056,5403699.45507076,1053,BRISTOL RD W at STARWOOD DR,43.599681,-79.67864
-8872304.56933822,5411464.44308963,1054,DERRY RD east of EDWARDS BLVD,43.650174,-79.701268
-8869013.7425514,5409599.22350635,1055,KENNEDY RD at KENWAY DR,43.638049,-79.671706
-8874545.4306879,5408814.17477653,1056,DERRY RD at MAVIS RD,43.632945,-79.721398
-8873358.54227705,5397677.47932178,1057,ERIN MILLS TOWN CENTRE BUS TERMINAL PLATFORM B,43.560493,-79.710736
-8874107.49981111,5397285.14501968,1058,ERIN CENTRE BLVD at GLEN ERIN DR,43.557939,-79.717464
-8868980.12406517,5404223.65136831,1059,BRISTOL RD W at MCLAUGHLIN RD,43.603091,-79.671404
-8870026.97255659,5403617.52326097,1060,BRISTOL RD W at MAVIS RD,43.599148,-79.680808
-8868123.85454199,5405930.80032409,1061,BRISTOL RD E at HURONTARIO ST,43.614195,-79.663712
-8876837.16504485,5394561.07691657,1062,CHURCHILL MEADOWS COMMUNITY CENTRE,43.540203,-79.741985
-8868082.44369142,5406024.59195569,1063,BRISTOL RD E at HURONTARIO ST,43.614805,-79.66334
-8873817.28989861,5396262.75756545,1064,EGLINTON AVE at KIMBERMOUNT AVE,43.551283,-79.714857
-8876189.17428895,5394977.09973382,1065,ERIN CENTRE BLVD at JANICE DR,43.542912,-79.736164
-8878425.80549796,5397272.24158979,1066,BRITANNIA RD at CHURCHILL MEADOWS BLVD,43.557855,-79.756256
-8873522.18192852,5396628.78264473,1067,EGLINTON AVE at GLEN ERIN DR,43.553666,-79.712206
-8874457.82224864,5395473.3108614,1068,EGLINTON AVE at SOUTHAMPTON DR,43.546143,-79.720611
-8874101.48855861,5395976.76734468,1069,EGLINTON AVE at WINSTON CHURCHILL BLVD,43.549421,-79.71741
-8877046.00040959,5398930.63335585,1070,WINSTON CHURCHILL BLVD at BRITANNIA RD,43.56865,-79.743861
-8873204.69874078,5397020.7819102,1071,EGLINTON AVE at METCALFE AVE,43.556218,-79.709354
-8872516.96692666,5397904.99167818,1072,EGLINTON AVE at CREDIT VALLEY RD,43.561974,-79.703176
-8874762.50369494,5395100.57411196,1073,EGLINTON AVE at MIDDLESEX GATE,43.543716,-79.723348
-8866652.87879065,5405098.09535999,1074,EGLINTON AVE E at SORRENTO DR,43.608779,-79.650498
-8873498.91615494,5396708.65575655,1075,EGLINTON AVE at GLEN ERIN DR,43.554186,-79.711997
-8875691.68748459,5393986.44638771,1076,EGLINTON AVE at INTREPID DR,43.536461,-79.731695
-8858252.5986959,5406449.74136392,1077,DUNDAS ST west of WHARTON WAY,43.61757,-79.575037
-8876402.68507229,5394710.80612061,1078,ERIN CENTRE BLVD at LONGFORD DR,43.541178,-79.738082
